{
  "type": "FeatureCollection",
  "name": "ARA-SSM alignment",
  "description": "Passenger main-line geometry Ara Junction (ARA) to Sasaram Junction (SSM) via Garhani, Piro, Bikramganj, Garhnokha. OSM extract filtered: Howrah\u2013Delhi, EDFC, yards/sidings and parallel tracks removed.",
  "corridor_km_approx": 98.6,
  "stations": [
    {
      "code": "ARA",
      "name": "Ara Junction",
      "lon": 84.6614,
      "lat": 25.5488
    },
    {
      "code": "GQN",
      "name": "Garhani",
      "lon": 84.57011,
      "lat": 25.41168
    },
    {
      "code": "PIRO",
      "name": "Piro",
      "lon": 84.40882,
      "lat": 25.31993
    },
    {
      "code": "XBKJ",
      "name": "Bikramganj",
      "lon": 84.27562,
      "lat": 25.22031
    },
    {
      "code": "GNK",
      "name": "Garhnokha",
      "lon": 84.12284,
      "lat": 25.09724
    },
    {
      "code": "SSM",
      "name": "Sasaram Junction",
      "lon": 84.0192,
      "lat": 24.9562
    }
  ],
  "features": [
    {
      "type": "Feature",
      "properties": {
        "@id": "way/629511203",
        "IRrouterank": "1",
        "electrified": "contact_line",
        "frequency": "50",
        "gauge": "1676",
        "passenger_lines": "1",
        "railway": "rail",
        "usage": "main",
        "voltage": "25000"
      },
      "geometry": {
        "type": "LineString",
        "coordinates": [
          [
            84.6668894,
            25.549678
          ],
          [
            84.6666232,
            25.5495611
          ],
          [
            84.6664503,
            25.549516
          ],
          [
            84.6654181,
            25.5493286
          ],
          [
            84.6588528,
            25.5479639
          ],
          [
            84.6580294,
            25.5478042
          ],
          [
            84.65745,
            25.547705
          ],
          [
            84.6565458,
            25.5476062
          ],
          [
            84.6562174,
            25.5475702
          ],
          [
            84.6551616,
            25.547432
          ],
          [
            84.6545929,
            25.5473996
          ],
          [
            84.6538426,
            25.5474118
          ]
        ]
      },
      "id": "way/629511203"
    },
    {
      "type": "Feature",
      "properties": {
        "@id": "way/697085585",
        "electrified": "contact_line",
        "frequency": "50",
        "gauge": "1676",
        "passenger_lines": "1",
        "railway": "rail",
        "usage": "main",
        "voltage": "25000"
      },
      "geometry": {
        "type": "LineString",
        "coordinates": [
          [
            84.6538426,
            25.5474118
          ],
          [
            84.6535842,
            25.5474082
          ],
          [
            84.6512986,
            25.5473762
          ],
          [
            84.6506212,
            25.5473483
          ],
          [
            84.6500576,
            25.547266
          ],
          [
            84.6492878,
            25.5471257
          ],
          [
            84.6487798,
            25.546978
          ],
          [
            84.6482622,
            25.5467825
          ],
          [
            84.6475954,
            25.5464697
          ],
          [
            84.6473807,
            25.546346
          ],
          [
            84.6470826,
            25.5461743
          ],
          [
            84.6467672,
            25.5459745
          ],
          [
            84.6466772,
            25.5459033
          ],
          [
            84.6463579,
            25.5456508
          ],
          [
            84.6461112,
            25.5454763
          ],
          [
            84.6458612,
            25.5452667
          ],
          [
            84.6457322,
            25.5451298
          ],
          [
            84.6454985,
            25.5447928
          ],
          [
            84.6451807,
            25.544347
          ],
          [
            84.6446616,
            25.5434985
          ],
          [
            84.6442492,
            25.5427866
          ],
          [
            84.6440033,
            25.5424396
          ],
          [
            84.6432321,
            25.541177
          ],
          [
            84.6420952,
            25.5392752
          ]
        ]
      },
      "id": "way/697085585"
    },
    {
      "type": "Feature",
      "properties": {
        "@id": "way/96359839",
        "electrified": "contact_line",
        "frequency": "50",
        "gauge": "1676",
        "passenger_lines": "1",
        "railway": "rail",
        "usage": "main",
        "voltage": "25000"
      },
      "geometry": {
        "type": "LineString",
        "coordinates": [
          [
            84.5630093,
            25.405647
          ],
          [
            84.5634546,
            25.4060225
          ],
          [
            84.5639832,
            25.40647
          ],
          [
            84.5640204,
            25.4065015
          ],
          [
            84.5654406,
            25.4077038
          ],
          [
            84.566882,
            25.4089227
          ],
          [
            84.56714,
            25.409137
          ],
          [
            84.5674928,
            25.4094298
          ],
          [
            84.5678927,
            25.4097619
          ],
          [
            84.5690061,
            25.410716
          ],
          [
            84.5698344,
            25.4114196
          ],
          [
            84.5701054,
            25.4116808
          ],
          [
            84.5705145,
            25.4120751
          ],
          [
            84.5712593,
            25.4128988
          ],
          [
            84.571947,
            25.4137414
          ],
          [
            84.5722548,
            25.4141996
          ],
          [
            84.5728153,
            25.415073
          ],
          [
            84.5729561,
            25.4153303
          ],
          [
            84.5730707,
            25.4155398
          ],
          [
            84.5731079,
            25.4156076
          ],
          [
            84.5733586,
            25.4160653
          ],
          [
            84.5744867,
            25.4184301
          ],
          [
            84.5750804,
            25.4197063
          ],
          [
            84.5759383,
            25.4215536
          ],
          [
            84.5763967,
            25.4224963
          ],
          [
            84.5765585,
            25.4229587
          ],
          [
            84.5773246,
            25.4244116
          ],
          [
            84.5777475,
            25.425236
          ],
          [
            84.5781112,
            25.4259452
          ],
          [
            84.5790641,
            25.4278326
          ],
          [
            84.5801031,
            25.4298701
          ],
          [
            84.5809877,
            25.4317145
          ],
          [
            84.5815547,
            25.4329129
          ],
          [
            84.582374,
            25.434634
          ],
          [
            84.5826367,
            25.4351848
          ],
          [
            84.5830568,
            25.4360655
          ],
          [
            84.5840008,
            25.43806
          ],
          [
            84.5849418,
            25.4400142
          ],
          [
            84.5853168,
            25.440955
          ],
          [
            84.5854433,
            25.4412287
          ],
          [
            84.5856335,
            25.44151
          ],
          [
            84.5859274,
            25.4420837
          ],
          [
            84.5864943,
            25.4430648
          ],
          [
            84.5869842,
            25.4440352
          ],
          [
            84.5884269,
            25.447083
          ],
          [
            84.5888913,
            25.4481847
          ],
          [
            84.5898992,
            25.4501709
          ],
          [
            84.5902367,
            25.4508784
          ],
          [
            84.5912648,
            25.4530336
          ],
          [
            84.5917435,
            25.4541658
          ],
          [
            84.59209,
            25.4547651
          ],
          [
            84.5933991,
            25.4575312
          ],
          [
            84.5948181,
            25.4605224
          ],
          [
            84.5950062,
            25.4609158
          ],
          [
            84.5960114,
            25.4630176
          ],
          [
            84.596991,
            25.4650894
          ],
          [
            84.5979291,
            25.4670485
          ],
          [
            84.5987543,
            25.4687799
          ],
          [
            84.5995944,
            25.470605
          ],
          [
            84.6003576,
            25.4722591
          ],
          [
            84.6004791,
            25.4725372
          ],
          [
            84.6012865,
            25.4742819
          ],
          [
            84.6014255,
            25.4747168
          ],
          [
            84.6019099,
            25.4756459
          ],
          [
            84.6027797,
            25.4775218
          ],
          [
            84.603139,
            25.4783039
          ],
          [
            84.6035752,
            25.479253
          ],
          [
            84.60404,
            25.4803826
          ],
          [
            84.6045964,
            25.4814504
          ],
          [
            84.6052762,
            25.482927
          ],
          [
            84.6064428,
            25.4854405
          ],
          [
            84.607556,
            25.4878602
          ],
          [
            84.6082002,
            25.4892804
          ],
          [
            84.6088587,
            25.4907008
          ],
          [
            84.6089779,
            25.4909578
          ],
          [
            84.6093044,
            25.4916647
          ],
          [
            84.6098448,
            25.4928389
          ],
          [
            84.6103672,
            25.493983
          ],
          [
            84.6109995,
            25.4953361
          ],
          [
            84.6116556,
            25.4967616
          ],
          [
            84.6118342,
            25.4971508
          ],
          [
            84.6123194,
            25.4982081
          ],
          [
            84.6124155,
            25.4984175
          ],
          [
            84.6130359,
            25.4997116
          ],
          [
            84.6138641,
            25.5015336
          ],
          [
            84.6141551,
            25.5021471
          ],
          [
            84.61444,
            25.5028196
          ],
          [
            84.6145203,
            25.5030465
          ],
          [
            84.6148052,
            25.5038511
          ],
          [
            84.6151478,
            25.5045684
          ],
          [
            84.6154909,
            25.5052604
          ],
          [
            84.6161202,
            25.5064982
          ],
          [
            84.6168064,
            25.5078979
          ],
          [
            84.617269,
            25.5087836
          ],
          [
            84.6174501,
            25.5091158
          ],
          [
            84.6176371,
            25.5094239
          ],
          [
            84.6178835,
            25.5098016
          ],
          [
            84.6180628,
            25.510011
          ],
          [
            84.618285,
            25.5102656
          ],
          [
            84.618439,
            25.510443
          ],
          [
            84.6185849,
            25.5106125
          ],
          [
            84.6190384,
            25.5111007
          ],
          [
            84.6197329,
            25.5117708
          ],
          [
            84.6220306,
            25.513973
          ],
          [
            84.6232833,
            25.5151973
          ],
          [
            84.6233755,
            25.5153638
          ],
          [
            84.6237199,
            25.5156672
          ],
          [
            84.6240017,
            25.5159155
          ],
          [
            84.6240779,
            25.5159817
          ],
          [
            84.6246102,
            25.5164832
          ],
          [
            84.6256485,
            25.5174884
          ],
          [
            84.6259965,
            25.5178254
          ],
          [
            84.6272937,
            25.5190737
          ],
          [
            84.6283951,
            25.5201453
          ],
          [
            84.6293159,
            25.5211258
          ],
          [
            84.6296834,
            25.5213937
          ],
          [
            84.6306752,
            25.5224481
          ],
          [
            84.6309925,
            25.5226688
          ],
          [
            84.6319611,
            25.5236162
          ],
          [
            84.6321503,
            25.5237725
          ],
          [
            84.6326074,
            25.5242145
          ],
          [
            84.6333109,
            25.5250637
          ],
          [
            84.6334192,
            25.5253337
          ],
          [
            84.6340828,
            25.52631
          ],
          [
            84.6356514,
            25.528862
          ],
          [
            84.6368894,
            25.5309034
          ],
          [
            84.637036,
            25.5311222
          ],
          [
            84.637475,
            25.5318445
          ],
          [
            84.6379553,
            25.532576
          ],
          [
            84.638692,
            25.5337794
          ],
          [
            84.6398561,
            25.5356459
          ],
          [
            84.6420211,
            25.5391621
          ]
        ]
      },
      "id": "way/96359839"
    },
    {
      "type": "Feature",
      "properties": {
        "@id": "way/96359860",
        "electrified": "no",
        "gauge": "1676",
        "railway": "rail"
      },
      "geometry": {
        "type": "LineString",
        "coordinates": [
          [
            84.5674928,
            25.4094298
          ],
          [
            84.5678946,
            25.4098374
          ],
          [
            84.5690497,
            25.410831
          ],
          [
            84.5697755,
            25.4114436
          ],
          [
            84.5704613,
            25.4121026
          ],
          [
            84.5712042,
            25.4129126
          ],
          [
            84.5718843,
            25.413762
          ],
          [
            84.5721997,
            25.4142184
          ],
          [
            84.5726709,
            25.4149546
          ],
          [
            84.5729561,
            25.4153303
          ]
        ]
      },
      "id": "way/96359860"
    },
    {
      "type": "Feature",
      "properties": {
        "@id": "way/96359856",
        "electrified": "no",
        "gauge": "1676",
        "railway": "rail"
      },
      "geometry": {
        "type": "LineString",
        "coordinates": [
          [
            84.5678946,
            25.4098374
          ],
          [
            84.5673754,
            25.4094382
          ]
        ]
      },
      "id": "way/96359856"
    },
    {
      "type": "Feature",
      "properties": {
        "@id": "way/247563614",
        "electrified": "contact_line",
        "frequency": "50",
        "gauge": "1676",
        "passenger_lines": "1",
        "railway": "rail",
        "usage": "main",
        "voltage": "25000"
      },
      "geometry": {
        "type": "LineString",
        "coordinates": [
          [
            84.4149738,
            25.3235552
          ],
          [
            84.4162547,
            25.3243108
          ],
          [
            84.4186247,
            25.3256918
          ],
          [
            84.418955,
            25.3258843
          ],
          [
            84.4211174,
            25.3271552
          ],
          [
            84.4215901,
            25.327433
          ],
          [
            84.4255081,
            25.3297464
          ],
          [
            84.425836,
            25.32994
          ],
          [
            84.4296594,
            25.332199
          ],
          [
            84.4318345,
            25.333473
          ],
          [
            84.4337755,
            25.3344987
          ],
          [
            84.4353471,
            25.3352151
          ],
          [
            84.4367747,
            25.3358625
          ],
          [
            84.4372276,
            25.3360653
          ],
          [
            84.4402556,
            25.337419
          ],
          [
            84.4409381,
            25.3377352
          ],
          [
            84.4444415,
            25.3392766
          ],
          [
            84.4450142,
            25.3395303
          ],
          [
            84.4479102,
            25.3408207
          ],
          [
            84.4497336,
            25.3416318
          ],
          [
            84.4517132,
            25.3425243
          ],
          [
            84.4532954,
            25.3432303
          ],
          [
            84.4537212,
            25.3434209
          ],
          [
            84.45567,
            25.3442684
          ],
          [
            84.4567143,
            25.3446964
          ],
          [
            84.4574626,
            25.3449768
          ],
          [
            84.4580711,
            25.3452036
          ],
          [
            84.4594959,
            25.3456662
          ],
          [
            84.4597003,
            25.3457279
          ],
          [
            84.4614099,
            25.3462972
          ],
          [
            84.4641167,
            25.3471803
          ],
          [
            84.4669513,
            25.348127
          ],
          [
            84.4697476,
            25.3490471
          ],
          [
            84.4711131,
            25.3495005
          ],
          [
            84.4723688,
            25.349919
          ],
          [
            84.4732178,
            25.350196
          ],
          [
            84.4738828,
            25.3504153
          ],
          [
            84.4743726,
            25.3505816
          ],
          [
            84.4752631,
            25.3509062
          ],
          [
            84.4758776,
            25.3511477
          ],
          [
            84.4766257,
            25.3514884
          ],
          [
            84.4773589,
            25.3518693
          ],
          [
            84.4780334,
            25.3522594
          ],
          [
            84.4788039,
            25.3527366
          ],
          [
            84.479454,
            25.3531927
          ],
          [
            84.4798636,
            25.3535092
          ],
          [
            84.4806859,
            25.3541825
          ],
          [
            84.4813063,
            25.3547593
          ],
          [
            84.4817041,
            25.3551617
          ],
          [
            84.4824225,
            25.3558967
          ],
          [
            84.4842066,
            25.3576779
          ],
          [
            84.4854385,
            25.3589011
          ],
          [
            84.4862328,
            25.3597069
          ],
          [
            84.487279,
            25.3607681
          ],
          [
            84.4880567,
            25.3615407
          ],
          [
            84.4891814,
            25.3626835
          ],
          [
            84.4895499,
            25.3630482
          ],
          [
            84.4905883,
            25.3641169
          ],
          [
            84.4917354,
            25.3652511
          ],
          [
            84.492767,
            25.3662838
          ],
          [
            84.4944724,
            25.3679884
          ],
          [
            84.4958765,
            25.3694074
          ],
          [
            84.4974825,
            25.3710006
          ],
          [
            84.4989519,
            25.3724946
          ],
          [
            84.5000117,
            25.3735567
          ],
          [
            84.5015048,
            25.3750695
          ],
          [
            84.5016667,
            25.3752324
          ],
          [
            84.5027041,
            25.3762764
          ],
          [
            84.5040518,
            25.3776121
          ],
          [
            84.5055391,
            25.3789746
          ],
          [
            84.5071599,
            25.3803049
          ],
          [
            84.508189,
            25.3810813
          ],
          [
            84.508941,
            25.3816351
          ],
          [
            84.511108,
            25.3832899
          ],
          [
            84.511476,
            25.3836494
          ],
          [
            84.5134502,
            25.3850627
          ],
          [
            84.514301,
            25.3856945
          ],
          [
            84.5143548,
            25.3857347
          ],
          [
            84.5158517,
            25.3868461
          ],
          [
            84.5166449,
            25.3875159
          ],
          [
            84.5176254,
            25.3882445
          ],
          [
            84.5178584,
            25.3883372
          ],
          [
            84.5191791,
            25.3893241
          ],
          [
            84.5194722,
            25.3896197
          ],
          [
            84.5203249,
            25.3901662
          ],
          [
            84.5206632,
            25.3905
          ],
          [
            84.5214626,
            25.3910983
          ],
          [
            84.5219695,
            25.3913971
          ],
          [
            84.5234597,
            25.3924993
          ],
          [
            84.5237952,
            25.3928344
          ],
          [
            84.5242733,
            25.3931156
          ],
          [
            84.5242928,
            25.3931358
          ],
          [
            84.524741,
            25.39347
          ],
          [
            84.5249815,
            25.3936607
          ],
          [
            84.5251458,
            25.393749
          ],
          [
            84.5256534,
            25.3940976
          ],
          [
            84.5262612,
            25.3944541
          ],
          [
            84.526449,
            25.3945642
          ],
          [
            84.5270991,
            25.3948967
          ],
          [
            84.527859,
            25.3952239
          ],
          [
            84.5284201,
            25.3954411
          ],
          [
            84.5288713,
            25.3955698
          ],
          [
            84.5301656,
            25.3958916
          ],
          [
            84.5316172,
            25.3962376
          ],
          [
            84.534562,
            25.3969563
          ],
          [
            84.5372336,
            25.3975972
          ],
          [
            84.5397183,
            25.3982032
          ],
          [
            84.5429955,
            25.3989943
          ],
          [
            84.545783,
            25.3996754
          ],
          [
            84.5477689,
            25.4001554
          ],
          [
            84.5503308,
            25.4007775
          ],
          [
            84.5534151,
            25.401523
          ],
          [
            84.5541945,
            25.4017129
          ],
          [
            84.5561359,
            25.4022223
          ],
          [
            84.5566915,
            25.4023502
          ],
          [
            84.5575176,
            25.4025179
          ],
          [
            84.5581528,
            25.4027029
          ],
          [
            84.5587287,
            25.4029013
          ],
          [
            84.5593492,
            25.4031587
          ],
          [
            84.559931,
            25.4034296
          ],
          [
            84.5604802,
            25.4037326
          ],
          [
            84.5610264,
            25.4040785
          ],
          [
            84.561531,
            25.4044351
          ],
          [
            84.5616998,
            25.4045781
          ],
          [
            84.5621128,
            25.404891
          ],
          [
            84.5626395,
            25.4053351
          ]
        ]
      },
      "id": "way/247563614"
    },
    {
      "type": "Feature",
      "properties": {
        "@id": "way/247563613",
        "bridge": "yes",
        "electrified": "contact_line",
        "frequency": "50",
        "gauge": "1676",
        "layer": "1",
        "passenger_lines": "1",
        "railway": "rail",
        "usage": "main",
        "voltage": "25000"
      },
      "geometry": {
        "type": "LineString",
        "coordinates": [
          [
            84.4148474,
            25.3234807
          ],
          [
            84.4149738,
            25.3235552
          ]
        ]
      },
      "id": "way/247563613"
    },
    {
      "type": "Feature",
      "properties": {
        "@id": "way/1442718990",
        "electrified": "contact_line",
        "frequency": "50",
        "gauge": "1676",
        "passenger_lines": "1",
        "railway": "rail",
        "usage": "main",
        "voltage": "25000"
      },
      "geometry": {
        "type": "LineString",
        "coordinates": [
          [
            84.3903337,
            25.3045832
          ],
          [
            84.3904735,
            25.3047121
          ],
          [
            84.3914167,
            25.3055381
          ],
          [
            84.3927398,
            25.3067166
          ],
          [
            84.3935671,
            25.3074535
          ],
          [
            84.3939536,
            25.3078253
          ],
          [
            84.3945019,
            25.3084002
          ],
          [
            84.3952311,
            25.3091809
          ],
          [
            84.396451,
            25.3105117
          ],
          [
            84.3976286,
            25.3117817
          ],
          [
            84.3986668,
            25.3128853
          ],
          [
            84.3998032,
            25.3141219
          ],
          [
            84.3999789,
            25.3143013
          ],
          [
            84.4005052,
            25.3148105
          ],
          [
            84.4008342,
            25.3150831
          ],
          [
            84.4012317,
            25.3153898
          ],
          [
            84.401612,
            25.3156407
          ],
          [
            84.4024653,
            25.3161642
          ],
          [
            84.4038532,
            25.316982
          ],
          [
            84.4049102,
            25.3176008
          ],
          [
            84.4066254,
            25.3186051
          ],
          [
            84.4069592,
            25.3188044
          ],
          [
            84.4088231,
            25.3199335
          ],
          [
            84.4104765,
            25.3209069
          ],
          [
            84.4118192,
            25.3216975
          ],
          [
            84.4124256,
            25.3220545
          ],
          [
            84.4132874,
            25.3225619
          ],
          [
            84.4145481,
            25.3233041
          ],
          [
            84.4147939,
            25.3234501
          ],
          [
            84.4148474,
            25.3234807
          ]
        ]
      },
      "id": "way/1442718990"
    },
    {
      "type": "Feature",
      "properties": {
        "@id": "way/1442718991",
        "bridge": "yes",
        "electrified": "contact_line",
        "frequency": "50",
        "gauge": "1676",
        "layer": "1",
        "passenger_lines": "1",
        "railway": "rail",
        "usage": "main",
        "voltage": "25000"
      },
      "geometry": {
        "type": "LineString",
        "coordinates": [
          [
            84.3902481,
            25.3045042
          ],
          [
            84.3903337,
            25.3045832
          ]
        ]
      },
      "id": "way/1442718991"
    },
    {
      "type": "Feature",
      "properties": {
        "@id": "way/96330902",
        "electrified": "contact_line",
        "frequency": "50",
        "gauge": "1676",
        "passenger_lines": "1",
        "railway": "rail",
        "usage": "main",
        "voltage": "25000"
      },
      "geometry": {
        "type": "LineString",
        "coordinates": [
          [
            84.3009213,
            25.2414823
          ],
          [
            84.301364,
            25.2415927
          ],
          [
            84.3020592,
            25.2417177
          ],
          [
            84.3027106,
            25.2417792
          ],
          [
            84.3054213,
            25.2419558
          ],
          [
            84.3093856,
            25.2422662
          ],
          [
            84.310259,
            25.2423706
          ],
          [
            84.3110404,
            25.2425368
          ],
          [
            84.3114261,
            25.2426572
          ],
          [
            84.3118107,
            25.2427773
          ],
          [
            84.3125015,
            25.2430575
          ],
          [
            84.3132253,
            25.2434195
          ],
          [
            84.3138503,
            25.2437567
          ],
          [
            84.3159831,
            25.2448949
          ],
          [
            84.3181927,
            25.2461223
          ],
          [
            84.3199993,
            25.2471191
          ],
          [
            84.3216095,
            25.2479646
          ],
          [
            84.3221075,
            25.248272
          ],
          [
            84.3237468,
            25.2491764
          ],
          [
            84.3256693,
            25.2502798
          ],
          [
            84.3282907,
            25.251814
          ],
          [
            84.3300324,
            25.2528421
          ],
          [
            84.3310322,
            25.2534194
          ],
          [
            84.3337016,
            25.2549908
          ],
          [
            84.3347627,
            25.2556065
          ],
          [
            84.3356994,
            25.2561499
          ],
          [
            84.338081,
            25.2575538
          ],
          [
            84.3391399,
            25.2582356
          ],
          [
            84.3398253,
            25.2587346
          ],
          [
            84.3409869,
            25.2596302
          ],
          [
            84.3432383,
            25.2614184
          ],
          [
            84.3453229,
            25.2630369
          ],
          [
            84.345733,
            25.2633553
          ],
          [
            84.3473504,
            25.2646538
          ],
          [
            84.3496395,
            25.2664512
          ],
          [
            84.3502901,
            25.2669672
          ],
          [
            84.3519526,
            25.2682857
          ],
          [
            84.3532105,
            25.2692922
          ],
          [
            84.3536728,
            25.2696957
          ],
          [
            84.3556912,
            25.271555
          ],
          [
            84.358203,
            25.2738915
          ],
          [
            84.3604716,
            25.2759801
          ],
          [
            84.361997,
            25.2773825
          ],
          [
            84.3626578,
            25.277988
          ],
          [
            84.3660366,
            25.2811393
          ],
          [
            84.3677843,
            25.2827412
          ],
          [
            84.3680281,
            25.2830001
          ],
          [
            84.3688466,
            25.2838691
          ],
          [
            84.3705771,
            25.2857994
          ],
          [
            84.37215,
            25.2875748
          ],
          [
            84.3737802,
            25.2893822
          ],
          [
            84.3739833,
            25.2896074
          ],
          [
            84.3754754,
            25.2912718
          ],
          [
            84.3757855,
            25.2915802
          ],
          [
            84.3762155,
            25.292008
          ],
          [
            84.3767583,
            25.2925012
          ],
          [
            84.3777069,
            25.293334
          ],
          [
            84.3784745,
            25.2940305
          ],
          [
            84.3799822,
            25.2953689
          ],
          [
            84.3810075,
            25.2962662
          ],
          [
            84.3824057,
            25.2975203
          ],
          [
            84.3843918,
            25.2992646
          ],
          [
            84.3858551,
            25.3005874
          ],
          [
            84.3865528,
            25.3012045
          ],
          [
            84.3873731,
            25.3019382
          ],
          [
            84.3893606,
            25.3036855
          ],
          [
            84.3902481,
            25.3045042
          ]
        ]
      },
      "id": "way/96330902"
    },
    {
      "type": "Feature",
      "properties": {
        "@id": "way/1442718993",
        "bridge": "yes",
        "electrified": "contact_line",
        "frequency": "50",
        "gauge": "1676",
        "layer": "1",
        "passenger_lines": "1",
        "railway": "rail",
        "usage": "main",
        "voltage": "25000"
      },
      "geometry": {
        "type": "LineString",
        "coordinates": [
          [
            84.3007802,
            25.241447
          ],
          [
            84.3008646,
            25.2414681
          ],
          [
            84.3009213,
            25.2414823
          ]
        ]
      },
      "id": "way/1442718993"
    },
    {
      "type": "Feature",
      "properties": {
        "@id": "way/1442718992",
        "electrified": "contact_line",
        "frequency": "50",
        "gauge": "1676",
        "passenger_lines": "1",
        "railway": "rail",
        "usage": "main",
        "voltage": "25000"
      },
      "geometry": {
        "type": "LineString",
        "coordinates": [
          [
            84.2806244,
            25.2254522
          ],
          [
            84.2807403,
            25.2255785
          ],
          [
            84.2808672,
            25.2257167
          ],
          [
            84.282693,
            25.227691
          ],
          [
            84.2838505,
            25.2289254
          ],
          [
            84.2860988,
            25.2313525
          ],
          [
            84.2870653,
            25.2323958
          ],
          [
            84.2877438,
            25.2331088
          ],
          [
            84.2884394,
            25.2337938
          ],
          [
            84.2889946,
            25.2342681
          ],
          [
            84.289841,
            25.2349159
          ],
          [
            84.2906908,
            25.2354801
          ],
          [
            84.2913501,
            25.2359112
          ],
          [
            84.2917052,
            25.2361434
          ],
          [
            84.2938526,
            25.2375093
          ],
          [
            84.2942101,
            25.2377367
          ],
          [
            84.2967905,
            25.2393795
          ],
          [
            84.2982497,
            25.2402973
          ],
          [
            84.2988287,
            25.2406524
          ],
          [
            84.2992038,
            25.2408429
          ],
          [
            84.299444,
            25.2409535
          ],
          [
            84.2994494,
            25.240956
          ],
          [
            84.3001315,
            25.2412396
          ],
          [
            84.300728,
            25.241434
          ],
          [
            84.3007802,
            25.241447
          ]
        ]
      },
      "id": "way/1442718992"
    },
    {
      "type": "Feature",
      "properties": {
        "@id": "way/1442718989",
        "bridge": "yes",
        "electrified": "contact_line",
        "frequency": "50",
        "gauge": "1676",
        "layer": "1",
        "passenger_lines": "1",
        "railway": "rail",
        "usage": "main",
        "voltage": "25000"
      },
      "geometry": {
        "type": "LineString",
        "coordinates": [
          [
            84.2805471,
            25.2253681
          ],
          [
            84.2806244,
            25.2254522
          ]
        ]
      },
      "id": "way/1442718989"
    },
    {
      "type": "Feature",
      "properties": {
        "@id": "way/1442718988",
        "electrified": "contact_line",
        "frequency": "50",
        "gauge": "1676",
        "passenger_lines": "1",
        "railway": "rail",
        "usage": "main",
        "voltage": "25000"
      },
      "geometry": {
        "type": "LineString",
        "coordinates": [
          [
            84.2775285,
            25.2221135
          ],
          [
            84.2779562,
            25.2225748
          ],
          [
            84.2787694,
            25.223444
          ],
          [
            84.2790003,
            25.2236974
          ],
          [
            84.2798668,
            25.2246272
          ],
          [
            84.2805471,
            25.2253681
          ]
        ]
      },
      "id": "way/1442718988"
    },
    {
      "type": "Feature",
      "properties": {
        "@id": "way/1442718987",
        "bridge": "yes",
        "electrified": "contact_line",
        "frequency": "50",
        "gauge": "1676",
        "layer": "1",
        "passenger_lines": "1",
        "railway": "rail",
        "usage": "main",
        "voltage": "25000"
      },
      "geometry": {
        "type": "LineString",
        "coordinates": [
          [
            84.2774502,
            25.2220291
          ],
          [
            84.2775285,
            25.2221135
          ]
        ]
      },
      "id": "way/1442718987"
    },
    {
      "type": "Feature",
      "properties": {
        "@id": "way/1442718986",
        "electrified": "contact_line",
        "frequency": "50",
        "gauge": "1676",
        "passenger_lines": "1",
        "railway": "rail",
        "usage": "main",
        "voltage": "25000"
      },
      "geometry": {
        "type": "LineString",
        "coordinates": [
          [
            84.268497,
            25.2152872
          ],
          [
            84.2704267,
            25.2166196
          ],
          [
            84.271972,
            25.2176872
          ],
          [
            84.2720989,
            25.2177754
          ],
          [
            84.2723567,
            25.2179547
          ],
          [
            84.2730251,
            25.2184191
          ],
          [
            84.2738834,
            25.2190151
          ],
          [
            84.2744738,
            25.2194367
          ],
          [
            84.2751776,
            25.2199634
          ],
          [
            84.2756203,
            25.2203109
          ],
          [
            84.2757558,
            25.2204172
          ],
          [
            84.2761193,
            25.2207337
          ],
          [
            84.2765785,
            25.2211368
          ],
          [
            84.2771307,
            25.2216845
          ],
          [
            84.2774502,
            25.2220291
          ]
        ]
      },
      "id": "way/1442718986"
    },
    {
      "type": "Feature",
      "properties": {
        "@id": "way/96330904",
        "bridge": "yes",
        "electrified": "contact_line",
        "frequency": "50",
        "gauge": "1676",
        "layer": "1",
        "passenger_lines": "1",
        "railway": "rail",
        "usage": "main",
        "voltage": "25000"
      },
      "geometry": {
        "type": "LineString",
        "coordinates": [
          [
            84.2682924,
            25.215146
          ],
          [
            84.268497,
            25.2152872
          ]
        ]
      },
      "id": "way/96330904"
    },
    {
      "type": "Feature",
      "properties": {
        "@id": "way/96330874",
        "electrified": "contact_line",
        "frequency": "50",
        "gauge": "1676",
        "passenger_lines": "1",
        "railway": "rail",
        "usage": "main",
        "voltage": "25000"
      },
      "geometry": {
        "type": "LineString",
        "coordinates": [
          [
            84.2481655,
            25.1919323
          ],
          [
            84.2485979,
            25.1924799
          ],
          [
            84.2496176,
            25.1937649
          ],
          [
            84.2505973,
            25.1950041
          ],
          [
            84.2516517,
            25.1963349
          ],
          [
            84.2526473,
            25.1975934
          ],
          [
            84.253013,
            25.1980474
          ],
          [
            84.2535522,
            25.1987503
          ],
          [
            84.2545292,
            25.19997
          ],
          [
            84.2545823,
            25.2000376
          ],
          [
            84.2555649,
            25.2012888
          ],
          [
            84.2574549,
            25.2036654
          ],
          [
            84.2590458,
            25.2056725
          ],
          [
            84.2604045,
            25.2073921
          ],
          [
            84.2618166,
            25.2091817
          ],
          [
            84.2621148,
            25.2095663
          ],
          [
            84.2629644,
            25.2106405
          ],
          [
            84.2633729,
            25.211109
          ],
          [
            84.2639601,
            25.2117683
          ],
          [
            84.2645794,
            25.21236
          ],
          [
            84.2652654,
            25.2129589
          ],
          [
            84.2660182,
            25.2135603
          ],
          [
            84.2660987,
            25.2136181
          ],
          [
            84.2667683,
            25.2140988
          ],
          [
            84.2675851,
            25.2146576
          ],
          [
            84.2682924,
            25.215146
          ]
        ]
      },
      "id": "way/96330874"
    },
    {
      "type": "Feature",
      "properties": {
        "@id": "way/129560586",
        "electrified": "contact_line",
        "frequency": "50",
        "gauge": "1676",
        "passenger_lines": "1",
        "railway": "rail",
        "usage": "main",
        "voltage": "25000"
      },
      "geometry": {
        "type": "LineString",
        "coordinates": [
          [
            84.1742561,
            25.1332976
          ],
          [
            84.1755245,
            25.1337572
          ],
          [
            84.1765618,
            25.1341411
          ],
          [
            84.1779285,
            25.134637
          ],
          [
            84.1786182,
            25.1348841
          ],
          [
            84.1799562,
            25.1353684
          ],
          [
            84.1803343,
            25.1355053
          ],
          [
            84.1813807,
            25.1358842
          ],
          [
            84.1820086,
            25.1361297
          ],
          [
            84.1827638,
            25.1364608
          ],
          [
            84.1834444,
            25.1367788
          ],
          [
            84.1840379,
            25.1371045
          ],
          [
            84.1849208,
            25.1376411
          ],
          [
            84.1850022,
            25.1376942
          ],
          [
            84.1854846,
            25.1380089
          ],
          [
            84.1863149,
            25.1386208
          ],
          [
            84.1864782,
            25.1387564
          ],
          [
            84.1865251,
            25.1387962
          ],
          [
            84.1868383,
            25.1390551
          ],
          [
            84.1875641,
            25.1397158
          ],
          [
            84.188246,
            25.1404136
          ],
          [
            84.1895653,
            25.1418696
          ],
          [
            84.190648,
            25.1430353
          ],
          [
            84.191257,
            25.143691
          ],
          [
            84.1923929,
            25.1449344
          ],
          [
            84.1927085,
            25.1452798
          ],
          [
            84.1944669,
            25.1472129
          ],
          [
            84.1949212,
            25.1477166
          ],
          [
            84.196162,
            25.1490282
          ],
          [
            84.1966054,
            25.1494708
          ],
          [
            84.1969403,
            25.1497739
          ],
          [
            84.1972751,
            25.150077
          ],
          [
            84.1975912,
            25.1503368
          ],
          [
            84.197791,
            25.1504947
          ],
          [
            84.1979756,
            25.1506368
          ],
          [
            84.1985667,
            25.1510698
          ],
          [
            84.199344,
            25.1515909
          ],
          [
            84.20034,
            25.1521709
          ],
          [
            84.2028126,
            25.153563
          ],
          [
            84.2063525,
            25.155537
          ],
          [
            84.2083785,
            25.1566799
          ],
          [
            84.2086118,
            25.1568109
          ],
          [
            84.2100602,
            25.1576246
          ],
          [
            84.2116351,
            25.1585186
          ],
          [
            84.2131594,
            25.159369
          ],
          [
            84.2139445,
            25.1598275
          ],
          [
            84.2149285,
            25.1603663
          ],
          [
            84.2157566,
            25.1608332
          ],
          [
            84.2175051,
            25.1618576
          ],
          [
            84.218402,
            25.1625003
          ],
          [
            84.2191254,
            25.1630946
          ],
          [
            84.2209806,
            25.1646965
          ],
          [
            84.2219865,
            25.1656175
          ],
          [
            84.2225796,
            25.166105
          ],
          [
            84.2241011,
            25.1674314
          ],
          [
            84.2241917,
            25.1675099
          ],
          [
            84.2258308,
            25.1689293
          ],
          [
            84.2260972,
            25.1691573
          ],
          [
            84.2281372,
            25.1709031
          ],
          [
            84.2299443,
            25.1724975
          ],
          [
            84.2321573,
            25.1744254
          ],
          [
            84.2326236,
            25.1748315
          ],
          [
            84.2340018,
            25.1760319
          ],
          [
            84.2357556,
            25.1775418
          ],
          [
            84.2376989,
            25.1792231
          ],
          [
            84.2387453,
            25.1801773
          ],
          [
            84.2394126,
            25.180873
          ],
          [
            84.2399688,
            25.1815708
          ],
          [
            84.2404723,
            25.1821799
          ],
          [
            84.2407859,
            25.1825767
          ],
          [
            84.241759,
            25.1838081
          ],
          [
            84.2422841,
            25.1844762
          ],
          [
            84.2430082,
            25.1853976
          ],
          [
            84.244375,
            25.1871078
          ],
          [
            84.2455575,
            25.1886272
          ],
          [
            84.2466946,
            25.1900717
          ],
          [
            84.2476423,
            25.1912698
          ],
          [
            84.2477515,
            25.191408
          ],
          [
            84.2478615,
            25.1915473
          ]
        ]
      },
      "id": "way/129560586"
    },
    {
      "type": "Feature",
      "properties": {
        "@id": "way/247566693",
        "electrified": "contact_line",
        "frequency": "50",
        "gauge": "1676",
        "passenger_lines": "1",
        "railway": "rail",
        "usage": "main",
        "voltage": "25000"
      },
      "geometry": {
        "type": "LineString",
        "coordinates": [
          [
            84.1280906,
            25.1028268
          ],
          [
            84.12824,
            25.1029608
          ],
          [
            84.1292814,
            25.1038314
          ],
          [
            84.1304218,
            25.1046357
          ],
          [
            84.1308502,
            25.1048885
          ],
          [
            84.1318041,
            25.1053286
          ],
          [
            84.1331226,
            25.105882
          ],
          [
            84.1359523,
            25.1070692
          ],
          [
            84.1361596,
            25.1071592
          ],
          [
            84.1401075,
            25.108818
          ],
          [
            84.1463287,
            25.1114362
          ],
          [
            84.1480746,
            25.1123981
          ],
          [
            84.1481468,
            25.1124379
          ],
          [
            84.149194,
            25.1131848
          ],
          [
            84.1493831,
            25.1133197
          ],
          [
            84.1501249,
            25.1139183
          ],
          [
            84.1507304,
            25.1144849
          ],
          [
            84.1530829,
            25.1167299
          ],
          [
            84.1567167,
            25.120301
          ],
          [
            84.1604813,
            25.1240005
          ],
          [
            84.1629718,
            25.1264557
          ],
          [
            84.1658873,
            25.1289061
          ],
          [
            84.1695039,
            25.1313154
          ],
          [
            84.1742561,
            25.1332976
          ]
        ]
      },
      "id": "way/247566693"
    },
    {
      "type": "Feature",
      "properties": {
        "@id": "way/247566694",
        "bridge": "yes",
        "electrified": "contact_line",
        "frequency": "50",
        "gauge": "1676",
        "layer": "1",
        "passenger_lines": "1",
        "railway": "rail",
        "usage": "main",
        "voltage": "25000"
      },
      "geometry": {
        "type": "LineString",
        "coordinates": [
          [
            84.1277975,
            25.1025795
          ],
          [
            84.1280906,
            25.1028268
          ]
        ]
      },
      "id": "way/247566694"
    },
    {
      "type": "Feature",
      "properties": {
        "@id": "way/247566692",
        "electrified": "contact_line",
        "frequency": "50",
        "gauge": "1676",
        "passenger_lines": "1",
        "railway": "rail",
        "usage": "main",
        "voltage": "25000"
      },
      "geometry": {
        "type": "LineString",
        "coordinates": [
          [
            84.0735621,
            25.0547394
          ],
          [
            84.0777804,
            25.0580503
          ],
          [
            84.0792688,
            25.0592228
          ],
          [
            84.0821016,
            25.0614419
          ],
          [
            84.0937361,
            25.0705343
          ],
          [
            84.0994181,
            25.0748582
          ],
          [
            84.1035309,
            25.0776704
          ],
          [
            84.1057138,
            25.0791815
          ],
          [
            84.1074907,
            25.080444
          ],
          [
            84.1089642,
            25.0816963
          ],
          [
            84.1108225,
            25.083699
          ],
          [
            84.1122186,
            25.085322
          ],
          [
            84.1122449,
            25.0853519
          ],
          [
            84.1175831,
            25.0914307
          ],
          [
            84.1182805,
            25.0921773
          ],
          [
            84.1213594,
            25.0956758
          ],
          [
            84.1219329,
            25.0963205
          ],
          [
            84.1249222,
            25.0996836
          ],
          [
            84.1260885,
            25.1010405
          ],
          [
            84.1277975,
            25.1025795
          ]
        ]
      },
      "id": "way/247566692"
    },
    {
      "type": "Feature",
      "properties": {
        "@id": "way/206175488",
        "electrified": "contact_line",
        "frequency": "50",
        "gauge": "1676",
        "passenger_lines": "1",
        "railway": "rail",
        "usage": "main",
        "voltage": "25000"
      },
      "geometry": {
        "type": "LineString",
        "coordinates": [
          [
            84.0659824,
            25.0483947
          ],
          [
            84.0668048,
            25.0496489
          ],
          [
            84.0732958,
            25.0545387
          ]
        ]
      },
      "id": "way/206175488"
    },
    {
      "type": "Feature",
      "properties": {
        "@id": "way/96330844",
        "electrified": "contact_line",
        "frequency": "50",
        "gauge": "1676",
        "passenger_lines": "1",
        "railway": "rail",
        "usage": "main",
        "voltage": "25000"
      },
      "geometry": {
        "type": "LineString",
        "coordinates": [
          [
            84.0659824,
            25.0483947
          ],
          [
            84.0650101,
            25.0472469
          ],
          [
            84.0645342,
            25.0466443
          ],
          [
            84.0599974,
            25.0410814
          ],
          [
            84.0585727,
            25.0393445
          ],
          [
            84.0560225,
            25.0362252
          ],
          [
            84.0550986,
            25.0350965
          ],
          [
            84.0518918,
            25.0311633
          ],
          [
            84.049995,
            25.0288838
          ],
          [
            84.0482897,
            25.0267312
          ],
          [
            84.0473624,
            25.0256198
          ],
          [
            84.046956,
            25.0251712
          ],
          [
            84.0443293,
            25.0229249
          ],
          [
            84.040875,
            25.0200258
          ],
          [
            84.0408586,
            25.0200131
          ],
          [
            84.0372096,
            25.0169182
          ],
          [
            84.0361281,
            25.0160139
          ],
          [
            84.0355489,
            25.0154465
          ],
          [
            84.03481,
            25.0145359
          ],
          [
            84.0343741,
            25.0137926
          ],
          [
            84.0339603,
            25.0128217
          ],
          [
            84.0336795,
            25.0118709
          ],
          [
            84.0334821,
            25.0110886
          ]
        ]
      },
      "id": "way/96330844"
    },
    {
      "type": "Feature",
      "properties": {
        "@id": "way/206175489",
        "bridge": "yes",
        "electrified": "contact_line",
        "frequency": "50",
        "gauge": "1676",
        "layer": "1",
        "passenger_lines": "1",
        "railway": "rail",
        "usage": "main",
        "voltage": "25000"
      },
      "geometry": {
        "type": "LineString",
        "coordinates": [
          [
            84.0334821,
            25.0110886
          ],
          [
            84.0334121,
            25.0106552
          ]
        ]
      },
      "id": "way/206175489"
    },
    {
      "type": "Feature",
      "properties": {
        "@id": "way/959068700",
        "electrified": "contact_line",
        "frequency": "50",
        "gauge": "1676",
        "passenger_lines": "1",
        "railway": "rail",
        "usage": "main",
        "voltage": "25000"
      },
      "geometry": {
        "type": "LineString",
        "coordinates": [
          [
            84.0320247,
            24.9693213
          ],
          [
            84.0310925,
            24.9743003
          ],
          [
            84.0306404,
            24.9768328
          ],
          [
            84.0304594,
            24.977771
          ],
          [
            84.0302002,
            24.9791152
          ],
          [
            84.0297831,
            24.9814231
          ],
          [
            84.029438,
            24.9832317
          ],
          [
            84.0292938,
            24.9842666
          ],
          [
            84.0293547,
            24.9851055
          ],
          [
            84.0293811,
            24.9853256
          ],
          [
            84.0297566,
            24.9878251
          ],
          [
            84.0303407,
            24.9912958
          ],
          [
            84.0308452,
            24.9945672
          ],
          [
            84.0314028,
            24.9979226
          ],
          [
            84.0319508,
            25.0012763
          ],
          [
            84.0322477,
            25.0031386
          ],
          [
            84.0324202,
            25.0040596
          ],
          [
            84.0327877,
            25.0064321
          ],
          [
            84.0331686,
            25.0089868
          ],
          [
            84.0333214,
            25.0099652
          ],
          [
            84.0334121,
            25.0106552
          ]
        ]
      },
      "id": "way/959068700"
    },
    {
      "type": "Feature",
      "properties": {
        "@id": "way/911549222",
        "bridge": "yes",
        "electrified": "contact_line",
        "frequency": "50",
        "gauge": "1676",
        "layer": "1",
        "passenger_lines": "1",
        "railway": "rail",
        "usage": "main",
        "voltage": "25000"
      },
      "geometry": {
        "type": "LineString",
        "coordinates": [
          [
            84.0320247,
            24.9693213
          ],
          [
            84.0320702,
            24.9690195
          ]
        ]
      },
      "id": "way/911549222"
    },
    {
      "type": "Feature",
      "properties": {
        "@id": "way/911549221",
        "electrified": "contact_line",
        "frequency": "50",
        "gauge": "1676",
        "passenger_lines": "1",
        "railway": "rail",
        "usage": "main",
        "voltage": "25000"
      },
      "geometry": {
        "type": "LineString",
        "coordinates": [
          [
            84.0320702,
            24.9690195
          ],
          [
            84.0320877,
            24.968938
          ],
          [
            84.0324622,
            24.9668781
          ],
          [
            84.0325056,
            24.9667211
          ],
          [
            84.032947,
            24.9642286
          ],
          [
            84.0330544,
            24.963538
          ],
          [
            84.0330779,
            24.9628656
          ],
          [
            84.0330242,
            24.962251
          ],
          [
            84.0328832,
            24.9616394
          ],
          [
            84.0327154,
            24.9611222
          ],
          [
            84.0326267,
            24.9609108
          ],
          [
            84.0325711,
            24.9607784
          ],
          [
            84.0322623,
            24.9601668
          ],
          [
            84.0318798,
            24.9596131
          ],
          [
            84.0314233,
            24.9590806
          ],
          [
            84.0307924,
            24.9585116
          ],
          [
            84.030516,
            24.958321
          ],
          [
            84.0302454,
            24.9581343
          ],
          [
            84.0298752,
            24.9578487
          ],
          [
            84.0296172,
            24.9577112
          ],
          [
            84.0293743,
            24.9575956
          ],
          [
            84.0290376,
            24.9574532
          ],
          [
            84.0286472,
            24.9573295
          ],
          [
            84.0284746,
            24.957287
          ],
          [
            84.0282893,
            24.9572494
          ],
          [
            84.0279062,
            24.9571759
          ],
          [
            84.0273074,
            24.9570576
          ],
          [
            84.0270168,
            24.9570358
          ],
          [
            84.0264362,
            24.9569934
          ],
          [
            84.0256771,
            24.9569618
          ],
          [
            84.0246713,
            24.9570287
          ],
          [
            84.0176443,
            24.9566197
          ],
          [
            84.0172825,
            24.9565635
          ]
        ]
      },
      "id": "way/911549221"
    }
  ]
}