{"type":"FeatureCollection","name":"EC alignments: SSM-ARA | NEO-JTDM-DHWN-BEHS-KIUL | RGD-BKP-MKA","description":"OSM-filtered passenger alignments for map overlay/verification. Does NOT modify graph_nodes, graph_edges, or app JS. Pathfinding already correct in project (see README corridor table). Compact GeoJSON for mobile-friendly size.","graph_status":{"SSM-ARA":"96.11 km via intermediates (OK)","NEO-JTDM":"18.00 km injected (OK)","JTDM-DHWN":"23.00 km (OK)","DHWN-BEHS":"37.46 km (OK)","SHK-BEHS":"42.00 km injected (OK)","BEHS-KIUL":"68.29 km via network (OK)","RGD-BKP":"53.66 km (OK)","BKP-MKA":"44.05 km (OK)"},"corridors":[{"id":"SSM-ARA","features":28,"km_approx":98.6},{"id":"NEO-JTDM-DHWN-BEHS-KIUL","features":102,"km_approx":176.9},{"id":"RGD-BKP-MKA","features":37,"km_approx":98.3}],"stations":[{"code":"SSM","name":"Sasaram Junction","lon":84.0192,"lat":24.9562,"corridors":["SSM-ARA"]},{"code":"ARA","name":"Ara Junction","lon":84.6614,"lat":25.5488,"corridors":["SSM-ARA"]},{"code":"NEO","name":"Neora","lon":84.98682,"lat":25.57494,"corridors":["NEO-JTDM-DHWN-BEHS-KIUL"]},{"code":"JTDM","name":"Jatdumri Junction","lon":85.09506,"lat":25.47449,"corridors":["NEO-JTDM-DHWN-BEHS-KIUL"]},{"code":"DHWN","name":"Daniyawan Junction","lon":85.28726,"lat":25.42218,"corridors":["NEO-JTDM-DHWN-BEHS-KIUL"]},{"code":"BEHS","name":"Bihar Sharif Junction","lon":85.53952,"lat":25.20327,"corridors":["NEO-JTDM-DHWN-BEHS-KIUL"]},{"code":"SHK","name":"Sheikpura","lon":85.85242,"lat":25.1308,"corridors":["NEO-JTDM-DHWN-BEHS-KIUL"]},{"code":"KIUL","name":"Kiul Junction","lon":86.10567,"lat":25.17159,"corridors":["NEO-JTDM-DHWN-BEHS-KIUL"]},{"code":"RGD","name":"Rajgir","lon":85.41502,"lat":25.0327,"corridors":["RGD-BKP-MKA"]},{"code":"BKP","name":"Bakhtiyarpur Junction","lon":85.53078,"lat":25.45611,"corridors":["RGD-BKP-MKA"]},{"code":"MKA","name":"Mokameh Junction","lon":85.91419,"lat":25.39211,"corridors":["RGD-BKP-MKA"]}],"features":[{"type":"Feature","properties":{"corridor":"SSM-ARA","segment":"SSM-ARA","@id":"way/247563614","usage":"main"},"geometry":{"type":"LineString","coordinates":[[84.4149738,25.3235552],[84.4162547,25.3243108],[84.4186247,25.3256918],[84.418955,25.3258843],[84.4211174,25.3271552],[84.4215901,25.327433],[84.4255081,25.3297464],[84.425836,25.32994],[84.4296594,25.332199],[84.4318345,25.333473],[84.4337755,25.3344987],[84.4353471,25.3352151],[84.4367747,25.3358625],[84.4372276,25.3360653],[84.4402556,25.337419],[84.4409381,25.3377352],[84.4444415,25.3392766],[84.4450142,25.3395303],[84.4479102,25.3408207],[84.4497336,25.3416318],[84.4517132,25.3425243],[84.4532954,25.3432303],[84.4537212,25.3434209],[84.45567,25.3442684],[84.4567143,25.3446964],[84.4574626,25.3449768],[84.4580711,25.3452036],[84.4594959,25.3456662],[84.4597003,25.3457279],[84.4614099,25.3462972],[84.4641167,25.3471803],[84.4669513,25.348127],[84.4697476,25.3490471],[84.4711131,25.3495005],[84.4723688,25.349919],[84.4732178,25.350196],[84.4738828,25.3504153],[84.4743726,25.3505816],[84.4752631,25.3509062],[84.4758776,25.3511477],[84.4766257,25.3514884],[84.4773589,25.3518693],[84.4780334,25.3522594],[84.4788039,25.3527366],[84.479454,25.3531927],[84.4798636,25.3535092],[84.4806859,25.3541825],[84.4813063,25.3547593],[84.4817041,25.3551617],[84.4824225,25.3558967],[84.4842066,25.3576779],[84.4854385,25.3589011],[84.4862328,25.3597069],[84.487279,25.3607681],[84.4880567,25.3615407],[84.4891814,25.3626835],[84.4895499,25.3630482],[84.4905883,25.3641169],[84.4917354,25.3652511],[84.492767,25.3662838],[84.4944724,25.3679884],[84.4958765,25.3694074],[84.4974825,25.3710006],[84.4989519,25.3724946],[84.5000117,25.3735567],[84.5015048,25.3750695],[84.5016667,25.3752324],[84.5027041,25.3762764],[84.5040518,25.3776121],[84.5055391,25.3789746],[84.5071599,25.3803049],[84.508189,25.3810813],[84.508941,25.3816351],[84.511108,25.3832899],[84.511476,25.3836494],[84.5134502,25.3850627],[84.514301,25.3856945],[84.5143548,25.3857347],[84.5158517,25.3868461],[84.5166449,25.3875159],[84.5176254,25.3882445],[84.5178584,25.3883372],[84.5191791,25.3893241],[84.5194722,25.3896197],[84.5203249,25.3901662],[84.5206632,25.3905],[84.5214626,25.3910983],[84.5219695,25.3913971],[84.5234597,25.3924993],[84.5237952,25.3928344],[84.5242733,25.3931156],[84.5242928,25.3931358],[84.524741,25.39347],[84.5249815,25.3936607],[84.5251458,25.393749],[84.5256534,25.3940976],[84.5262612,25.3944541],[84.526449,25.3945642],[84.5270991,25.3948967],[84.527859,25.3952239],[84.5284201,25.3954411],[84.5288713,25.3955698],[84.5301656,25.3958916],[84.5316172,25.3962376],[84.534562,25.3969563],[84.5372336,25.3975972],[84.5397183,25.3982032],[84.5429955,25.3989943],[84.545783,25.3996754],[84.5477689,25.4001554],[84.5503308,25.4007775],[84.5534151,25.401523],[84.5541945,25.4017129],[84.5561359,25.4022223],[84.5566915,25.4023502],[84.5575176,25.4025179],[84.5581528,25.4027029],[84.5587287,25.4029013],[84.5593492,25.4031587],[84.559931,25.4034296],[84.5604802,25.4037326],[84.5610264,25.4040785],[84.561531,25.4044351],[84.5616998,25.4045781],[84.5621128,25.404891],[84.5626395,25.4053351]]}},{"type":"Feature","properties":{"corridor":"SSM-ARA","segment":"SSM-ARA","@id":"way/96359839","usage":"main"},"geometry":{"type":"LineString","coordinates":[[84.5630093,25.405647],[84.5634546,25.4060225],[84.5639832,25.40647],[84.5640204,25.4065015],[84.5654406,25.4077038],[84.566882,25.4089227],[84.56714,25.409137],[84.5674928,25.4094298],[84.5678927,25.4097619],[84.5690061,25.410716],[84.5698344,25.4114196],[84.5701054,25.4116808],[84.5705145,25.4120751],[84.5712593,25.4128988],[84.571947,25.4137414],[84.5722548,25.4141996],[84.5728153,25.415073],[84.5729561,25.4153303],[84.5730707,25.4155398],[84.5731079,25.4156076],[84.5733586,25.4160653],[84.5744867,25.4184301],[84.5750804,25.4197063],[84.5759383,25.4215536],[84.5763967,25.4224963],[84.5765585,25.4229587],[84.5773246,25.4244116],[84.5777475,25.425236],[84.5781112,25.4259452],[84.5790641,25.4278326],[84.5801031,25.4298701],[84.5809877,25.4317145],[84.5815547,25.4329129],[84.582374,25.434634],[84.5826367,25.4351848],[84.5830568,25.4360655],[84.5840008,25.43806],[84.5849418,25.4400142],[84.5853168,25.440955],[84.5854433,25.4412287],[84.5856335,25.44151],[84.5859274,25.4420837],[84.5864943,25.4430648],[84.5869842,25.4440352],[84.5884269,25.447083],[84.5888913,25.4481847],[84.5898992,25.4501709],[84.5902367,25.4508784],[84.5912648,25.4530336],[84.5917435,25.4541658],[84.59209,25.4547651],[84.5933991,25.4575312],[84.5948181,25.4605224],[84.5950062,25.4609158],[84.5960114,25.4630176],[84.596991,25.4650894],[84.5979291,25.4670485],[84.5987543,25.4687799],[84.5995944,25.470605],[84.6003576,25.4722591],[84.6004791,25.4725372],[84.6012865,25.4742819],[84.6014255,25.4747168],[84.6019099,25.4756459],[84.6027797,25.4775218],[84.603139,25.4783039],[84.6035752,25.479253],[84.60404,25.4803826],[84.6045964,25.4814504],[84.6052762,25.482927],[84.6064428,25.4854405],[84.607556,25.4878602],[84.6082002,25.4892804],[84.6088587,25.4907008],[84.6089779,25.4909578],[84.6093044,25.4916647],[84.6098448,25.4928389],[84.6103672,25.493983],[84.6109995,25.4953361],[84.6116556,25.4967616],[84.6118342,25.4971508],[84.6123194,25.4982081],[84.6124155,25.4984175],[84.6130359,25.4997116],[84.6138641,25.5015336],[84.6141551,25.5021471],[84.61444,25.5028196],[84.6145203,25.5030465],[84.6148052,25.5038511],[84.6151478,25.5045684],[84.6154909,25.5052604],[84.6161202,25.5064982],[84.6168064,25.5078979],[84.617269,25.5087836],[84.6174501,25.5091158],[84.6176371,25.5094239],[84.6178835,25.5098016],[84.6180628,25.510011],[84.618285,25.5102656],[84.618439,25.510443],[84.6185849,25.5106125],[84.6190384,25.5111007],[84.6197329,25.5117708],[84.6220306,25.513973],[84.6232833,25.5151973],[84.6233755,25.5153638],[84.6237199,25.5156672],[84.6240017,25.5159155],[84.6240779,25.5159817],[84.6246102,25.5164832],[84.6256485,25.5174884],[84.6259965,25.5178254],[84.6272937,25.5190737],[84.6283951,25.5201453],[84.6293159,25.5211258],[84.6296834,25.5213937],[84.6306752,25.5224481],[84.6309925,25.5226688],[84.6319611,25.5236162],[84.6321503,25.5237725],[84.6326074,25.5242145],[84.6333109,25.5250637],[84.6334192,25.5253337],[84.6340828,25.52631],[84.6356514,25.528862],[84.6368894,25.5309034],[84.637036,25.5311222],[84.637475,25.5318445],[84.6379553,25.532576],[84.638692,25.5337794],[84.6398561,25.5356459],[84.6420211,25.5391621]]}},{"type":"Feature","properties":{"corridor":"SSM-ARA","segment":"SSM-ARA","@id":"way/96330902","usage":"main"},"geometry":{"type":"LineString","coordinates":[[84.3009213,25.2414823],[84.301364,25.2415927],[84.3020592,25.2417177],[84.3027106,25.2417792],[84.3054213,25.2419558],[84.3093856,25.2422662],[84.310259,25.2423706],[84.3110404,25.2425368],[84.3114261,25.2426572],[84.3118107,25.2427773],[84.3125015,25.2430575],[84.3132253,25.2434195],[84.3138503,25.2437567],[84.3159831,25.2448949],[84.3181927,25.2461223],[84.3199993,25.2471191],[84.3216095,25.2479646],[84.3221075,25.248272],[84.3237468,25.2491764],[84.3256693,25.2502798],[84.3282907,25.251814],[84.3300324,25.2528421],[84.3310322,25.2534194],[84.3337016,25.2549908],[84.3347627,25.2556065],[84.3356994,25.2561499],[84.338081,25.2575538],[84.3391399,25.2582356],[84.3398253,25.2587346],[84.3409869,25.2596302],[84.3432383,25.2614184],[84.3453229,25.2630369],[84.345733,25.2633553],[84.3473504,25.2646538],[84.3496395,25.2664512],[84.3502901,25.2669672],[84.3519526,25.2682857],[84.3532105,25.2692922],[84.3536728,25.2696957],[84.3556912,25.271555],[84.358203,25.2738915],[84.3604716,25.2759801],[84.361997,25.2773825],[84.3626578,25.277988],[84.3660366,25.2811393],[84.3677843,25.2827412],[84.3680281,25.2830001],[84.3688466,25.2838691],[84.3705771,25.2857994],[84.37215,25.2875748],[84.3737802,25.2893822],[84.3739833,25.2896074],[84.3754754,25.2912718],[84.3757855,25.2915802],[84.3762155,25.292008],[84.3767583,25.2925012],[84.3777069,25.293334],[84.3784745,25.2940305],[84.3799822,25.2953689],[84.3810075,25.2962662],[84.3824057,25.2975203],[84.3843918,25.2992646],[84.3858551,25.3005874],[84.3865528,25.3012045],[84.3873731,25.3019382],[84.3893606,25.3036855],[84.3902481,25.3045042]]}},{"type":"Feature","properties":{"corridor":"SSM-ARA","segment":"SSM-ARA","@id":"way/129560586","usage":"main"},"geometry":{"type":"LineString","coordinates":[[84.1742561,25.1332976],[84.1755245,25.1337572],[84.1765618,25.1341411],[84.1779285,25.134637],[84.1786182,25.1348841],[84.1799562,25.1353684],[84.1803343,25.1355053],[84.1813807,25.1358842],[84.1820086,25.1361297],[84.1827638,25.1364608],[84.1834444,25.1367788],[84.1840379,25.1371045],[84.1849208,25.1376411],[84.1850022,25.1376942],[84.1854846,25.1380089],[84.1863149,25.1386208],[84.1864782,25.1387564],[84.1865251,25.1387962],[84.1868383,25.1390551],[84.1875641,25.1397158],[84.188246,25.1404136],[84.1895653,25.1418696],[84.190648,25.1430353],[84.191257,25.143691],[84.1923929,25.1449344],[84.1927085,25.1452798],[84.1944669,25.1472129],[84.1949212,25.1477166],[84.196162,25.1490282],[84.1966054,25.1494708],[84.1969403,25.1497739],[84.1972751,25.150077],[84.1975912,25.1503368],[84.197791,25.1504947],[84.1979756,25.1506368],[84.1985667,25.1510698],[84.199344,25.1515909],[84.20034,25.1521709],[84.2028126,25.153563],[84.2063525,25.155537],[84.2083785,25.1566799],[84.2086118,25.1568109],[84.2100602,25.1576246],[84.2116351,25.1585186],[84.2131594,25.159369],[84.2139445,25.1598275],[84.2149285,25.1603663],[84.2157566,25.1608332],[84.2175051,25.1618576],[84.218402,25.1625003],[84.2191254,25.1630946],[84.2209806,25.1646965],[84.2219865,25.1656175],[84.2225796,25.166105],[84.2241011,25.1674314],[84.2241917,25.1675099],[84.2258308,25.1689293],[84.2260972,25.1691573],[84.2281372,25.1709031],[84.2299443,25.1724975],[84.2321573,25.1744254],[84.2326236,25.1748315],[84.2340018,25.1760319],[84.2357556,25.1775418],[84.2376989,25.1792231],[84.2387453,25.1801773],[84.2394126,25.180873],[84.2399688,25.1815708],[84.2404723,25.1821799],[84.2407859,25.1825767],[84.241759,25.1838081],[84.2422841,25.1844762],[84.2430082,25.1853976],[84.244375,25.1871078],[84.2455575,25.1886272],[84.2466946,25.1900717],[84.2476423,25.1912698],[84.2477515,25.191408],[84.2478615,25.1915473]]}},{"type":"Feature","properties":{"corridor":"SSM-ARA","segment":"SSM-ARA","@id":"way/247566692","usage":"main"},"geometry":{"type":"LineString","coordinates":[[84.0735621,25.0547394],[84.0777804,25.0580503],[84.0792688,25.0592228],[84.0821016,25.0614419],[84.0937361,25.0705343],[84.0994181,25.0748582],[84.1035309,25.0776704],[84.1057138,25.0791815],[84.1074907,25.080444],[84.1089642,25.0816963],[84.1108225,25.083699],[84.1122186,25.085322],[84.1122449,25.0853519],[84.1175831,25.0914307],[84.1182805,25.0921773],[84.1213594,25.0956758],[84.1219329,25.0963205],[84.1249222,25.0996836],[84.1260885,25.1010405],[84.1277975,25.1025795]]}},{"type":"Feature","properties":{"corridor":"SSM-ARA","segment":"SSM-ARA","@id":"way/247566693","usage":"main"},"geometry":{"type":"LineString","coordinates":[[84.1280906,25.1028268],[84.12824,25.1029608],[84.1292814,25.1038314],[84.1304218,25.1046357],[84.1308502,25.1048885],[84.1318041,25.1053286],[84.1331226,25.105882],[84.1359523,25.1070692],[84.1361596,25.1071592],[84.1401075,25.108818],[84.1463287,25.1114362],[84.1480746,25.1123981],[84.1481468,25.1124379],[84.149194,25.1131848],[84.1493831,25.1133197],[84.1501249,25.1139183],[84.1507304,25.1144849],[84.1530829,25.1167299],[84.1567167,25.120301],[84.1604813,25.1240005],[84.1629718,25.1264557],[84.1658873,25.1289061],[84.1695039,25.1313154],[84.1742561,25.1332976]]}},{"type":"Feature","properties":{"corridor":"SSM-ARA","segment":"SSM-ARA","@id":"way/96330844","usage":"main"},"geometry":{"type":"LineString","coordinates":[[84.0659824,25.0483947],[84.0650101,25.0472469],[84.0645342,25.0466443],[84.0599974,25.0410814],[84.0585727,25.0393445],[84.0560225,25.0362252],[84.0550986,25.0350965],[84.0518918,25.0311633],[84.049995,25.0288838],[84.0482897,25.0267312],[84.0473624,25.0256198],[84.046956,25.0251712],[84.0443293,25.0229249],[84.040875,25.0200258],[84.0408586,25.0200131],[84.0372096,25.0169182],[84.0361281,25.0160139],[84.0355489,25.0154465],[84.03481,25.0145359],[84.0343741,25.0137926],[84.0339603,25.0128217],[84.0336795,25.0118709],[84.0334821,25.0110886]]}},{"type":"Feature","properties":{"corridor":"SSM-ARA","segment":"SSM-ARA","@id":"way/959068700","usage":"main"},"geometry":{"type":"LineString","coordinates":[[84.0320247,24.9693213],[84.0310925,24.9743003],[84.0306404,24.9768328],[84.0304594,24.977771],[84.0302002,24.9791152],[84.0297831,24.9814231],[84.029438,24.9832317],[84.0292938,24.9842666],[84.0293547,24.9851055],[84.0293811,24.9853256],[84.0297566,24.9878251],[84.0303407,24.9912958],[84.0308452,24.9945672],[84.0314028,24.9979226],[84.0319508,25.0012763],[84.0322477,25.0031386],[84.0324202,25.0040596],[84.0327877,25.0064321],[84.0331686,25.0089868],[84.0333214,25.0099652],[84.0334121,25.0106552]]}},{"type":"Feature","properties":{"corridor":"SSM-ARA","segment":"SSM-ARA","@id":"way/96330874","usage":"main"},"geometry":{"type":"LineString","coordinates":[[84.2481655,25.1919323],[84.2485979,25.1924799],[84.2496176,25.1937649],[84.2505973,25.1950041],[84.2516517,25.1963349],[84.2526473,25.1975934],[84.253013,25.1980474],[84.2535522,25.1987503],[84.2545292,25.19997],[84.2545823,25.2000376],[84.2555649,25.2012888],[84.2574549,25.2036654],[84.2590458,25.2056725],[84.2604045,25.2073921],[84.2618166,25.2091817],[84.2621148,25.2095663],[84.2629644,25.2106405],[84.2633729,25.211109],[84.2639601,25.2117683],[84.2645794,25.21236],[84.2652654,25.2129589],[84.2660182,25.2135603],[84.2660987,25.2136181],[84.2667683,25.2140988],[84.2675851,25.2146576],[84.2682924,25.215146]]}},{"type":"Feature","properties":{"corridor":"SSM-ARA","segment":"SSM-ARA","@id":"way/1442718990","usage":"main"},"geometry":{"type":"LineString","coordinates":[[84.3903337,25.3045832],[84.3904735,25.3047121],[84.3914167,25.3055381],[84.3927398,25.3067166],[84.3935671,25.3074535],[84.3939536,25.3078253],[84.3945019,25.3084002],[84.3952311,25.3091809],[84.396451,25.3105117],[84.3976286,25.3117817],[84.3986668,25.3128853],[84.3998032,25.3141219],[84.3999789,25.3143013],[84.4005052,25.3148105],[84.4008342,25.3150831],[84.4012317,25.3153898],[84.401612,25.3156407],[84.4024653,25.3161642],[84.4038532,25.316982],[84.4049102,25.3176008],[84.4066254,25.3186051],[84.4069592,25.3188044],[84.4088231,25.3199335],[84.4104765,25.3209069],[84.4118192,25.3216975],[84.4124256,25.3220545],[84.4132874,25.3225619],[84.4145481,25.3233041],[84.4147939,25.3234501],[84.4148474,25.3234807]]}},{"type":"Feature","properties":{"corridor":"SSM-ARA","segment":"SSM-ARA","@id":"way/1442718992","usage":"main"},"geometry":{"type":"LineString","coordinates":[[84.2806244,25.2254522],[84.2807403,25.2255785],[84.2808672,25.2257167],[84.282693,25.227691],[84.2838505,25.2289254],[84.2860988,25.2313525],[84.2870653,25.2323958],[84.2877438,25.2331088],[84.2884394,25.2337938],[84.2889946,25.2342681],[84.289841,25.2349159],[84.2906908,25.2354801],[84.2913501,25.2359112],[84.2917052,25.2361434],[84.2938526,25.2375093],[84.2942101,25.2377367],[84.2967905,25.2393795],[84.2982497,25.2402973],[84.2988287,25.2406524],[84.2992038,25.2408429],[84.299444,25.2409535],[84.2994494,25.240956],[84.3001315,25.2412396],[84.300728,25.241434],[84.3007802,25.241447]]}},{"type":"Feature","properties":{"corridor":"SSM-ARA","segment":"SSM-ARA","@id":"way/911549221","usage":"main"},"geometry":{"type":"LineString","coordinates":[[84.0320702,24.9690195],[84.0320877,24.968938],[84.0324622,24.9668781],[84.0325056,24.9667211],[84.032947,24.9642286],[84.0330544,24.963538],[84.0330779,24.9628656],[84.0330242,24.962251],[84.0328832,24.9616394],[84.0327154,24.9611222],[84.0326267,24.9609108],[84.0325711,24.9607784],[84.0322623,24.9601668],[84.0318798,24.9596131],[84.0314233,24.9590806],[84.0307924,24.9585116],[84.030516,24.958321],[84.0302454,24.9581343],[84.0298752,24.9578487],[84.0296172,24.9577112],[84.0293743,24.9575956],[84.0290376,24.9574532],[84.0286472,24.9573295],[84.0284746,24.957287],[84.0282893,24.9572494],[84.0279062,24.9571759],[84.0273074,24.9570576],[84.0270168,24.9570358],[84.0264362,24.9569934],[84.0256771,24.9569618],[84.0246713,24.9570287],[84.0176443,24.9566197],[84.0172825,24.9565635]]}},{"type":"Feature","properties":{"corridor":"SSM-ARA","segment":"SSM-ARA","@id":"way/697085585","usage":"main"},"geometry":{"type":"LineString","coordinates":[[84.6538426,25.5474118],[84.6535842,25.5474082],[84.6512986,25.5473762],[84.6506212,25.5473483],[84.6500576,25.547266],[84.6492878,25.5471257],[84.6487798,25.546978],[84.6482622,25.5467825],[84.6475954,25.5464697],[84.6473807,25.546346],[84.6470826,25.5461743],[84.6467672,25.5459745],[84.6466772,25.5459033],[84.6463579,25.5456508],[84.6461112,25.5454763],[84.6458612,25.5452667],[84.6457322,25.5451298],[84.6454985,25.5447928],[84.6451807,25.544347],[84.6446616,25.5434985],[84.6442492,25.5427866],[84.6440033,25.5424396],[84.6432321,25.541177],[84.6420952,25.5392752]]}},{"type":"Feature","properties":{"corridor":"SSM-ARA","segment":"SSM-ARA","@id":"way/629511203","usage":"main"},"geometry":{"type":"LineString","coordinates":[[84.6668894,25.549678],[84.6666232,25.5495611],[84.6664503,25.549516],[84.6654181,25.5493286],[84.6588528,25.5479639],[84.6580294,25.5478042],[84.65745,25.547705],[84.6565458,25.5476062],[84.6562174,25.5475702],[84.6551616,25.547432],[84.6545929,25.5473996],[84.6538426,25.5474118]]}},{"type":"Feature","properties":{"corridor":"SSM-ARA","segment":"SSM-ARA","@id":"way/1442718986","usage":"main"},"geometry":{"type":"LineString","coordinates":[[84.268497,25.2152872],[84.2704267,25.2166196],[84.271972,25.2176872],[84.2720989,25.2177754],[84.2723567,25.2179547],[84.2730251,25.2184191],[84.2738834,25.2190151],[84.2744738,25.2194367],[84.2751776,25.2199634],[84.2756203,25.2203109],[84.2757558,25.2204172],[84.2761193,25.2207337],[84.2765785,25.2211368],[84.2771307,25.2216845],[84.2774502,25.2220291]]}},{"type":"Feature","properties":{"corridor":"SSM-ARA","segment":"SSM-ARA","@id":"way/206175488","usage":"main"},"geometry":{"type":"LineString","coordinates":[[84.0659824,25.0483947],[84.0668048,25.0496489],[84.0732958,25.0545387]]}},{"type":"Feature","properties":{"corridor":"SSM-ARA","segment":"SSM-ARA","@id":"way/96359860"},"geometry":{"type":"LineString","coordinates":[[84.5674928,25.4094298],[84.5678946,25.4098374],[84.5690497,25.410831],[84.5697755,25.4114436],[84.5704613,25.4121026],[84.5712042,25.4129126],[84.5718843,25.413762],[84.5721997,25.4142184],[84.5726709,25.4149546],[84.5729561,25.4153303]]}},{"type":"Feature","properties":{"corridor":"SSM-ARA","segment":"SSM-ARA","@id":"way/1442718988","usage":"main"},"geometry":{"type":"LineString","coordinates":[[84.2775285,25.2221135],[84.2779562,25.2225748],[84.2787694,25.223444],[84.2790003,25.2236974],[84.2798668,25.2246272],[84.2805471,25.2253681]]}},{"type":"Feature","properties":{"corridor":"SSM-ARA","segment":"SSM-ARA","@id":"way/96359856"},"geometry":{"type":"LineString","coordinates":[[84.5678946,25.4098374],[84.5673754,25.4094382]]}},{"type":"Feature","properties":{"corridor":"SSM-ARA","segment":"SSM-ARA","@id":"way/206175489","usage":"main"},"geometry":{"type":"LineString","coordinates":[[84.0334821,25.0110886],[84.0334121,25.0106552]]}},{"type":"Feature","properties":{"corridor":"SSM-ARA","segment":"SSM-ARA","@id":"way/247566694","usage":"main"},"geometry":{"type":"LineString","coordinates":[[84.1277975,25.1025795],[84.1280906,25.1028268]]}},{"type":"Feature","properties":{"corridor":"SSM-ARA","segment":"SSM-ARA","@id":"way/911549222","usage":"main"},"geometry":{"type":"LineString","coordinates":[[84.0320247,24.9693213],[84.0320702,24.9690195]]}},{"type":"Feature","properties":{"corridor":"SSM-ARA","segment":"SSM-ARA","@id":"way/96330904","usage":"main"},"geometry":{"type":"LineString","coordinates":[[84.2682924,25.215146],[84.268497,25.2152872]]}},{"type":"Feature","properties":{"corridor":"SSM-ARA","segment":"SSM-ARA","@id":"way/247563613","usage":"main"},"geometry":{"type":"LineString","coordinates":[[84.4148474,25.3234807],[84.4149738,25.3235552]]}},{"type":"Feature","properties":{"corridor":"SSM-ARA","segment":"SSM-ARA","@id":"way/1442718993","usage":"main"},"geometry":{"type":"LineString","coordinates":[[84.3007802,25.241447],[84.3008646,25.2414681],[84.3009213,25.2414823]]}},{"type":"Feature","properties":{"corridor":"SSM-ARA","segment":"SSM-ARA","@id":"way/1442718991","usage":"main"},"geometry":{"type":"LineString","coordinates":[[84.3902481,25.3045042],[84.3903337,25.3045832]]}},{"type":"Feature","properties":{"corridor":"SSM-ARA","segment":"SSM-ARA","@id":"way/1442718987","usage":"main"},"geometry":{"type":"LineString","coordinates":[[84.2774502,25.2220291],[84.2775285,25.2221135]]}},{"type":"Feature","properties":{"corridor":"SSM-ARA","segment":"SSM-ARA","@id":"way/1442718989","usage":"main"},"geometry":{"type":"LineString","coordinates":[[84.2805471,25.2253681],[84.2806244,25.2254522]]}},{"type":"Feature","properties":{"corridor":"NEO-JTDM-DHWN-BEHS-KIUL","segment":"NEO-JTDM-DHWN-BEHS-KIUL","@id":"way/1272904202","usage":"main"},"geometry":{"type":"LineString","coordinates":[[85.9242587,25.1336587],[85.9284228,25.1335542],[85.9328434,25.1334486],[85.9335875,25.1334453],[85.9362506,25.1333735],[85.941566,25.1332532],[85.9465029,25.1331401],[85.9500336,25.1330599],[85.9532493,25.1329756],[85.9564491,25.1329141],[85.9594879,25.1328527],[85.9605967,25.1328303],[85.9653684,25.1327245],[85.9707764,25.132586],[85.9751214,25.1324949],[85.9807669,25.1323563],[85.9820676,25.1323345],[85.9826676,25.1323527],[85.9835897,25.132411],[85.9843146,25.1324912],[85.9853092,25.1326407],[85.986034,25.1327902],[85.9871857,25.1330818],[85.9882206,25.1334136],[85.9911365,25.1345397],[85.9935722,25.1354951],[85.9991332,25.1376751],[86.0056318,25.1401843],[86.0062121,25.1404109],[86.0374147,25.1525962],[86.0825178,25.170164],[86.0829392,25.1703413],[86.083256,25.1704897],[86.0838252,25.1708042],[86.0843336,25.1710948],[86.084802,25.1713782],[86.0850227,25.1714936],[86.0853262,25.1716369],[86.0856699,25.1717662],[86.0860265,25.1719013],[86.0862817,25.1719694],[86.0865694,25.172051]]}},{"type":"Feature","properties":{"corridor":"NEO-JTDM-DHWN-BEHS-KIUL","segment":"NEO-JTDM-DHWN-BEHS-KIUL","@id":"way/695615965","name":"Daniyawan - Bihar Sharif","usage":"main"},"geometry":{"type":"LineString","coordinates":[[85.5172593,25.2573712],[85.5024718,25.2580482],[85.4969787,25.2586692],[85.4941571,25.2595521],[85.4916572,25.2607651],[85.4731224,25.2763158],[85.4722166,25.2770648],[85.4695558,25.278617],[85.4556805,25.2845106],[85.4546642,25.2849422],[85.4151392,25.3015879],[85.4083017,25.3045032],[85.4053115,25.3057781],[85.4040241,25.3063213],[85.4023374,25.3077324]]}},{"type":"Feature","properties":{"corridor":"NEO-JTDM-DHWN-BEHS-KIUL","segment":"NEO-JTDM-DHWN-BEHS-KIUL","@id":"way/816826813","usage":"main"},"geometry":{"type":"LineString","coordinates":[[85.9918061,25.1348024],[85.9935722,25.1354951],[85.9991332,25.1376751],[86.0056318,25.1401843],[86.0062121,25.1404109],[86.0373825,25.1526472],[86.0825029,25.17021],[86.0829199,25.1703838],[86.0832232,25.1705338],[86.0837999,25.1708483],[86.0847635,25.1714072],[86.0849986,25.1715379],[86.0852976,25.1716828],[86.0856472,25.1718108],[86.0860033,25.1719245],[86.086251,25.1719926],[86.0865694,25.172051],[86.0868181,25.1720856],[86.0870021,25.1720992],[86.0872889,25.1721023],[86.0874851,25.1720928],[86.0876152,25.1720851],[86.0879536,25.1720517]]}},{"type":"Feature","properties":{"corridor":"NEO-JTDM-DHWN-BEHS-KIUL","segment":"NEO-JTDM-DHWN-BEHS-KIUL","@id":"way/696387129","name":"Daniyawan - Bihar Sharif railway line","usage":"main"},"geometry":{"type":"LineString","coordinates":[[85.3695688,25.3443534],[85.3643736,25.3485795],[85.3622553,25.3501788],[85.3520913,25.3586088],[85.3483624,25.3618984],[85.3450846,25.3648159],[85.3449004,25.3651209],[85.3419824,25.367481],[85.3365663,25.3721982],[85.3306547,25.3773068],[85.3267173,25.3807092],[85.322812,25.3841406],[85.3181505,25.3878291],[85.3148082,25.3904312],[85.3131525,25.3917589],[85.3115681,25.39299],[85.3104631,25.3937072],[85.3094116,25.3943469],[85.3031563,25.3971754],[85.3030484,25.3972223]]}},{"type":"Feature","properties":{"corridor":"NEO-JTDM-DHWN-BEHS-KIUL","segment":"NEO-JTDM-DHWN-BEHS-KIUL","@id":"way/746052885","usage":"main"},"geometry":{"type":"LineString","coordinates":[[85.6131934,25.2215616],[85.6059194,25.2216755],[85.5994606,25.2218308],[85.5979264,25.2218599],[85.5969286,25.2217725],[85.5959093,25.2215299],[85.594697,25.2211416],[85.5935168,25.2205593],[85.5923045,25.219676],[85.591253,25.2186083],[85.5905771,25.2176183],[85.5879218,25.2128055],[85.5843329,25.2063002],[85.5770802,25.1934083],[85.575943,25.1917773],[85.574913,25.1908259],[85.5735183,25.1899521],[85.5718446,25.1893696],[85.5704498,25.1890007],[85.5690121,25.1889036],[85.5669951,25.1890783],[85.5627812,25.189779]]}},{"type":"Feature","properties":{"corridor":"NEO-JTDM-DHWN-BEHS-KIUL","segment":"NEO-JTDM-DHWN-BEHS-KIUL","@id":"way/247678098","name":"Howrah - Delhi Railway","usage":"main"},"geometry":{"type":"LineString","coordinates":[[86.095605,25.1715258],[86.0953139,25.1715275],[86.0939329,25.1715332],[86.0933573,25.1715467],[86.0927596,25.1715726],[86.0921401,25.171617],[86.0896763,25.1718131],[86.0890792,25.171875],[86.0887724,25.1719182],[86.0884456,25.1719666],[86.0879536,25.1720517],[86.0875956,25.172121],[86.0870625,25.1722496],[86.0865449,25.1724082],[86.0860696,25.1725508],[86.0855755,25.1727408],[86.0851911,25.1729029],[86.0848061,25.1730875],[86.0843759,25.1733197],[86.0839729,25.173542],[86.0833519,25.1739198],[86.0820348,25.1747101],[86.0810773,25.1753431],[86.0802897,25.1759172],[86.0795807,25.1764938],[86.0788993,25.1770861],[86.0784622,25.1774987],[86.0779069,25.1780862],[86.0774027,25.1786639],[86.0768823,25.1792828],[86.0763781,25.1799358],[86.0758839,25.180621],[86.0745208,25.1825451],[86.0617343,25.2004987],[86.0598221,25.2031984],[86.0580936,25.2056188],[86.0549024,25.2098964],[86.0546325,25.21025]]}},{"type":"Feature","properties":{"corridor":"NEO-JTDM-DHWN-BEHS-KIUL","segment":"NEO-JTDM-DHWN-BEHS-KIUL","@id":"way/696369148","name":"Fatuha - Natesar","usage":"main"},"geometry":{"type":"LineString","coordinates":[[85.2847042,25.3695685],[85.2848452,25.3742495],[85.2849097,25.3760749],[85.2848527,25.3771934],[85.2847502,25.3778351],[85.2845338,25.3784458],[85.2843762,25.3789139],[85.2838578,25.380453],[85.2836793,25.3814926],[85.2835426,25.3825974],[85.2835274,25.3834482],[85.2834438,25.3851431],[85.2833185,25.3858362],[85.2830565,25.3870884],[85.282821,25.3878672],[85.2823463,25.3887455],[85.2817121,25.3900355],[85.2815185,25.3905776],[85.2813818,25.3911093],[85.2813393,25.3914033],[85.2812557,25.3919694],[85.2811697,25.3926811],[85.2810362,25.3937853],[85.281021,25.3945023],[85.2811235,25.3956413],[85.2814235,25.3985264],[85.2814985,25.3992657],[85.2815322,25.399598],[85.2816335,25.400309],[85.2817194,25.4007048],[85.2818618,25.4011353],[85.2819609,25.4014295],[85.2827487,25.4036238],[85.2840867,25.4073738],[85.2848347,25.4095122],[85.2849374,25.4097939],[85.2850789,25.4102622],[85.285122,25.4105291],[85.2851433,25.4108097],[85.285172,25.4111925],[85.2851638,25.4114767],[85.2851466,25.4116716],[85.2850968,25.4120066],[85.2848256,25.4131483],[85.2847759,25.413379],[85.2847424,25.4135622],[85.2847141,25.4137872],[85.2847006,25.4140839],[85.2847134,25.4146254],[85.2847697,25.4150295],[85.2848189,25.415334],[85.2848429,25.4154309],[85.2849501,25.4157859],[85.2853672,25.4169076]]}},{"type":"Feature","properties":{"corridor":"NEO-JTDM-DHWN-BEHS-KIUL","segment":"NEO-JTDM-DHWN-BEHS-KIUL","@id":"way/695015084","name":"Daniyawan - Bihar Sharif","usage":"main"},"geometry":{"type":"LineString","coordinates":[[85.4020047,25.3080082],[85.3999471,25.3099681],[85.3864769,25.3261369],[85.3856463,25.3271275],[85.3807785,25.3331015],[85.3757429,25.3391779],[85.3746271,25.3401863],[85.3698818,25.3440991]]}},{"type":"Feature","properties":{"corridor":"NEO-JTDM-DHWN-BEHS-KIUL","segment":"NEO-JTDM-DHWN-BEHS-KIUL","@id":"way/1272897489","name":"Neora - Daniwan Line","usage":"main"},"geometry":{"type":"LineString","coordinates":[[85.172528,25.4340801],[85.1704194,25.4347082],[85.1633977,25.4366865],[85.1586456,25.4379889],[85.1549703,25.4392418],[85.1509839,25.4403947],[85.140234,25.4433739],[85.1386407,25.4438042],[85.1351492,25.4448339],[85.1342774,25.4450078],[85.133647,25.4451199],[85.1274079,25.4460164]]}},{"type":"Feature","properties":{"corridor":"NEO-JTDM-DHWN-BEHS-KIUL","segment":"NEO-JTDM-DHWN-BEHS-KIUL","@id":"way/943745263","name":"Daniyawan - Bihar Sharif","usage":"main"},"geometry":{"type":"LineString","coordinates":[[85.5393845,25.2008494],[85.5397117,25.2113673],[85.5401114,25.2256185],[85.5400926,25.2262032],[85.5400228,25.2267904],[85.5399075,25.2273412],[85.5397439,25.2278969],[85.5395937,25.2283239],[85.5391027,25.2294652],[85.536831,25.2347876],[85.5349132,25.2392833],[85.5344868,25.2402028],[85.534358,25.2404697],[85.5338001,25.2417361]]}},{"type":"Feature","properties":{"corridor":"NEO-JTDM-DHWN-BEHS-KIUL","segment":"NEO-JTDM-DHWN-BEHS-KIUL","@id":"way/857200378","name":"Neora - Daniwan Line","usage":"main"},"geometry":{"type":"LineString","coordinates":[[85.0574854,25.4925487],[85.0581533,25.4916384],[85.0593817,25.4905682],[85.0609562,25.4894763],[85.0616214,25.489072],[85.0740803,25.4854902],[85.0803334,25.4836377],[85.0827231,25.4830933],[85.0852911,25.4827543],[85.0915594,25.4821653],[85.0924887,25.4818794],[85.0931507,25.4815507],[85.0936419,25.4812168],[85.094759,25.4801707],[85.0952346,25.4795423],[85.0959007,25.4779124],[85.0959235,25.476933],[85.0955808,25.4755855]]}},{"type":"Feature","properties":{"corridor":"NEO-JTDM-DHWN-BEHS-KIUL","segment":"NEO-JTDM-DHWN-BEHS-KIUL","@id":"way/1272897498","name":"Neora - Daniwan Line","usage":"main"},"geometry":{"type":"LineString","coordinates":[[85.2855389,25.4173581],[85.2858285,25.4181632],[85.2864729,25.4198842],[85.2873542,25.4222861],[85.2878802,25.4237316],[85.2883093,25.4249201],[85.2884841,25.4253803],[85.2885658,25.4256855],[85.288614,25.425889],[85.2886449,25.4260355],[85.2886838,25.4263081],[85.2887036,25.4265386],[85.2887178,25.4267345],[85.2886918,25.4270735],[85.2886609,25.4273691],[85.2885631,25.4277772],[85.2884826,25.4280728],[85.2882627,25.4284991],[85.2880239,25.4289448],[85.2873373,25.4296619],[85.2865326,25.4301948],[85.2856743,25.4305339],[85.2847838,25.4307568],[85.2843311,25.430834],[85.2828419,25.4310596],[85.282276,25.4311225],[85.2817288,25.4310886],[85.2812809,25.4310159],[85.2808302,25.4309094],[85.2805299,25.43081],[85.2802402,25.430701],[85.279695,25.4304515],[85.2772071,25.429249],[85.2748186,25.4283187],[85.2667594,25.4246524],[85.2651286,25.4239353],[85.2640772,25.4236059],[85.2625751,25.4233152],[85.2602785,25.4230144]]}},{"type":"Feature","properties":{"corridor":"NEO-JTDM-DHWN-BEHS-KIUL","segment":"NEO-JTDM-DHWN-BEHS-KIUL","@id":"way/247651816","name":"Natesar - Bakhtiyarpur","usage":"main"},"geometry":{"type":"LineString","coordinates":[[85.5338996,25.2418024],[85.5349852,25.2392936],[85.5368966,25.2347867],[85.5391333,25.2295394],[85.5396477,25.2283479],[85.5398095,25.2279144],[85.5399719,25.2273606],[85.5400781,25.2268014],[85.5401596,25.2262105],[85.5401791,25.2256212],[85.5398051,25.2127901],[85.5397803,25.2113627],[85.5397447,25.2105282],[85.5396015,25.2058321],[85.5395481,25.2040799],[85.5395233,25.2032668]]}},{"type":"Feature","properties":{"corridor":"NEO-JTDM-DHWN-BEHS-KIUL","segment":"NEO-JTDM-DHWN-BEHS-KIUL","@id":"way/1272897443","name":"Neora - Daniwan Line","usage":"main"},"geometry":{"type":"LineString","coordinates":[[85.0961199,25.4780405],[85.095401,25.4795685],[85.0948191,25.4802393],[85.0936818,25.481295],[85.0931716,25.4816095],[85.0925039,25.481941],[85.0915678,25.4822258],[85.0852949,25.4828399],[85.0827383,25.4831618],[85.0803448,25.4837199],[85.0741009,25.485561],[85.0617603,25.4891475],[85.0607726,25.4897826],[85.0594312,25.4906844],[85.0582724,25.491723],[85.0575782,25.4925983]]}},{"type":"Feature","properties":{"corridor":"NEO-JTDM-DHWN-BEHS-KIUL","segment":"NEO-JTDM-DHWN-BEHS-KIUL","@id":"way/902553790","name":"Neora - Daniwan Line","usage":"main"},"geometry":{"type":"LineString","coordinates":[[85.1258764,25.4462755],[85.1235938,25.4466655],[85.1172236,25.4484868],[85.1086486,25.4510056],[85.1079457,25.4512962],[85.106492,25.4520713],[85.0953365,25.4586328],[85.0946421,25.4590607],[85.0941466,25.4594795],[85.0937386,25.4598365],[85.0935309,25.4600586],[85.0933014,25.4603587],[85.093203,25.4605137],[85.0930777,25.4606928],[85.0929606,25.4608764],[85.092852,25.4610642],[85.0927519,25.4612558],[85.0926605,25.4614509],[85.0925791,25.4616465],[85.0925066,25.461845],[85.0924429,25.4620458],[85.0923882,25.4622489],[85.0923426,25.4624537],[85.0922684,25.462824],[85.0922397,25.4631292],[85.092236,25.463461]]}},{"type":"Feature","properties":{"corridor":"NEO-JTDM-DHWN-BEHS-KIUL","segment":"NEO-JTDM-DHWN-BEHS-KIUL","@id":"way/1272904229","usage":"main"},"geometry":{"type":"LineString","coordinates":[[85.5609226,25.190088],[85.5595922,25.1902822],[85.557661,25.1903987],[85.5496359,25.1907094],[85.5487473,25.1907783],[85.5481338,25.1908259],[85.547533,25.1908962],[85.5468893,25.1910783],[85.5456877,25.1915443],[85.5447006,25.1922045],[85.543735,25.1930976],[85.5430484,25.1939714],[85.5399531,25.1988496],[85.5397278,25.1992962],[85.5395991,25.199602],[85.5395186,25.1999418],[85.5395128,25.2001241],[85.5395025,25.2004466],[85.5395347,25.2008834],[85.5397707,25.2026648],[85.539819,25.2030919],[85.5399048,25.2040287],[85.5399424,25.2045092],[85.5400336,25.2077077],[85.5400228,25.2079698],[85.539819,25.2096297],[85.5397814,25.2098481],[85.5397447,25.2105282]]}},{"type":"Feature","properties":{"corridor":"NEO-JTDM-DHWN-BEHS-KIUL","segment":"NEO-JTDM-DHWN-BEHS-KIUL","@id":"way/155686322","name":"Natesar - Bakhtiyarpur","usage":"main"},"geometry":{"type":"LineString","coordinates":[[85.5395233,25.2032668],[85.5394788,25.2020994],[85.5394623,25.2016673],[85.5394555,25.2014343],[85.5394168,25.2001076],[85.5391862,25.193884],[85.5390193,25.1848978],[85.5390023,25.1846739],[85.5387143,25.1827868],[85.5377957,25.1810983],[85.5372769,25.1803378],[85.5363368,25.1793362],[85.5286852,25.1731764]]}},{"type":"Feature","properties":{"corridor":"NEO-JTDM-DHWN-BEHS-KIUL","segment":"NEO-JTDM-DHWN-BEHS-KIUL","@id":"way/1093764988","usage":"branch"},"geometry":{"type":"LineString","coordinates":[[85.8563009,25.1326],[85.8559871,25.1325781],[85.8558154,25.1325538],[85.8473289,25.131024],[85.8440432,25.1304485],[85.8437991,25.1303975],[85.8434638,25.1303198],[85.8431688,25.1302469],[85.8425265,25.1301269],[85.8378285,25.129278],[85.8370346,25.1291687],[85.8364099,25.1291181],[85.8359918,25.1291065],[85.8349079,25.1291473],[85.833835,25.1292832],[85.828374,25.1303323],[85.8269149,25.1305363],[85.8245787,25.1307087]]}},{"type":"Feature","properties":{"corridor":"NEO-JTDM-DHWN-BEHS-KIUL","segment":"NEO-JTDM-DHWN-BEHS-KIUL","@id":"way/340256693","name":"Daniyawan - Bihar Sharif","usage":"main"},"geometry":{"type":"LineString","coordinates":[[85.302922,25.3972804],[85.2989266,25.399056],[85.2906401,25.4027749],[85.2898619,25.4031689],[85.289171,25.403629],[85.2883216,25.4043257],[85.2878526,25.4047927],[85.2872434,25.4055042],[85.2866921,25.4064272],[85.2862408,25.4075637],[85.286014,25.4084217],[85.2855166,25.4103469],[85.2852541,25.4115675],[85.2851619,25.4120147],[85.2848764,25.4131622],[85.2848281,25.4133882],[85.2847879,25.4135789],[85.2847624,25.4137908],[85.2847502,25.4141909],[85.284761,25.4145515],[85.2847959,25.4149687],[85.2848871,25.4154055],[85.2849998,25.4157701],[85.2854155,25.4168894]]}},{"type":"Feature","properties":{"corridor":"NEO-JTDM-DHWN-BEHS-KIUL","segment":"NEO-JTDM-DHWN-BEHS-KIUL","@id":"way/1272897470","name":"Neora - Daniwan Line","usage":"main"},"geometry":{"type":"LineString","coordinates":[[85.2127052,25.4270356],[85.1926735,25.429588],[85.1859315,25.4304179],[85.1850592,25.4305678],[85.1842225,25.4307567],[85.1830369,25.4310887],[85.1824108,25.431274]]}},{"type":"Feature","properties":{"corridor":"NEO-JTDM-DHWN-BEHS-KIUL","segment":"NEO-JTDM-DHWN-BEHS-KIUL","@id":"way/943735394","name":"Fatuha - Natesar","usage":"main"},"geometry":{"type":"LineString","coordinates":[[85.2855912,25.417346],[85.2870233,25.421262],[85.28793,25.4237233],[85.2881959,25.4244653],[85.2885341,25.4253686],[85.2888873,25.4263542],[85.2889797,25.4266391],[85.2891548,25.4272183],[85.2896147,25.4284833],[85.2900784,25.429743],[85.2907679,25.4316747],[85.2908818,25.4321034],[85.2910293,25.4327405],[85.2911898,25.4347972],[85.2911932,25.4348401],[85.2912722,25.4359639],[85.2913717,25.4373787],[85.2914211,25.438081],[85.2915348,25.4388282],[85.2916679,25.4397031],[85.2919261,25.4411606],[85.2919755,25.4417813],[85.2919733,25.4421653],[85.291971,25.4425728]]}},{"type":"Feature","properties":{"corridor":"NEO-JTDM-DHWN-BEHS-KIUL","segment":"NEO-JTDM-DHWN-BEHS-KIUL","@id":"way/1546226427","usage":"main"},"geometry":{"type":"LineString","coordinates":[[85.8317962,25.1280663],[85.8360443,25.1288252],[85.8378634,25.1291542],[85.8425924,25.1300265],[85.8433056,25.1301619],[85.8452931,25.1305238],[85.8463445,25.1307107],[85.8573716,25.1327018],[85.8598736,25.1331536]]}},{"type":"Feature","properties":{"corridor":"NEO-JTDM-DHWN-BEHS-KIUL","segment":"NEO-JTDM-DHWN-BEHS-KIUL","@id":"way/1272897509","name":"Neora - Daniwan Line","usage":"main"},"geometry":{"type":"LineString","coordinates":[[85.0530677,25.5049803],[85.0506262,25.5135087],[85.0475116,25.5243876],[85.0464189,25.5284065]]}},{"type":"Feature","properties":{"corridor":"NEO-JTDM-DHWN-BEHS-KIUL","segment":"NEO-JTDM-DHWN-BEHS-KIUL","@id":"way/1272897510","name":"Neora - Daniwan Line","usage":"main"},"geometry":{"type":"LineString","coordinates":[[85.0463495,25.5283875],[85.0474512,25.5243767],[85.0505469,25.513515],[85.0529662,25.5050257]]}},{"type":"Feature","properties":{"corridor":"NEO-JTDM-DHWN-BEHS-KIUL","segment":"NEO-JTDM-DHWN-BEHS-KIUL","@id":"way/340256691","name":"Daniyawan - Bihar Sharif","usage":"main"},"geometry":{"type":"LineString","coordinates":[[85.5336204,25.2421777],[85.5332932,25.2429201],[85.5330437,25.2434805],[85.5326226,25.2443442],[85.5324671,25.2446717],[85.5308712,25.2484005],[85.5305439,25.2491646],[85.5303481,25.2496741],[85.5301201,25.2503582],[85.5298895,25.2510229],[85.5297339,25.2514232],[85.5294335,25.2520685],[85.5292216,25.2525343],[85.5289641,25.2530243],[85.5285725,25.2536259],[85.5281755,25.2541208],[85.5277571,25.2545696],[85.5274701,25.2548073],[85.5262148,25.2557679],[85.5246484,25.2565345],[85.5230713,25.2569711],[85.5220413,25.2571167],[85.5181575,25.2573301],[85.5178023,25.2573458]]}},{"type":"Feature","properties":{"corridor":"NEO-JTDM-DHWN-BEHS-KIUL","segment":"NEO-JTDM-DHWN-BEHS-KIUL","@id":"way/1272897454","name":"Neora - Daniwan Line","usage":"main"},"geometry":{"type":"LineString","coordinates":[[85.2586891,25.4228544],[85.2462244,25.4211737],[85.2450764,25.4210477],[85.2444354,25.4210089],[85.2437407,25.4210162],[85.2429199,25.4210768],[85.2417934,25.4212609],[85.2412795,25.4213976],[85.2370002,25.4225358],[85.2348898,25.4230972]]}},{"type":"Feature","properties":{"corridor":"NEO-JTDM-DHWN-BEHS-KIUL","segment":"NEO-JTDM-DHWN-BEHS-KIUL","@id":"way/1272897537","name":"Neora - Daniwan Line","usage":"main"},"geometry":{"type":"LineString","coordinates":[[85.0127059,25.5734415],[85.0114399,25.5746615],[85.0110376,25.5750257],[85.0106138,25.5753607],[85.0101712,25.5756825],[85.0097743,25.5759366],[85.0093357,25.5761882],[85.009093,25.57632],[85.0087912,25.5764531],[85.0083044,25.5766188],[85.0077224,25.5767918],[85.0072409,25.5769333],[85.0067206,25.5770458],[85.006215,25.5771184],[85.0057241,25.5771729],[85.0052842,25.5772043],[85.0048859,25.5772092],[85.0044662,25.5771946],[85.0040263,25.5771547],[85.0013439,25.5768293],[85.0012281,25.5768153],[84.9904181,25.5754587]]}},{"type":"Feature","properties":{"corridor":"NEO-JTDM-DHWN-BEHS-KIUL","segment":"NEO-JTDM-DHWN-BEHS-KIUL","@id":"way/517876900","name":"Howrah - Delhi Railway","usage":"main"},"geometry":{"type":"LineString","coordinates":[[86.0759382,25.1806446],[86.0764237,25.1799601],[86.0769279,25.1793071],[86.0774509,25.1786784],[86.0779525,25.1781129],[86.0785078,25.1775278],[86.0789342,25.1771176],[86.0796182,25.1765181],[86.0803156,25.175955],[86.0811068,25.1753844],[86.0820537,25.1747533],[86.083376,25.173962],[86.0840091,25.1735937],[86.0844101,25.1733725],[86.0848431,25.1731319],[86.0852204,25.1729507],[86.0856025,25.1727775],[86.0860801,25.1726031],[86.0865639,25.1724516],[86.0870845,25.1722962],[86.0876096,25.1721657],[86.0879593,25.1720899],[86.0884471,25.1720048],[86.0887784,25.171959],[86.0890786,25.1719163],[86.0896908,25.1718521],[86.0921298,25.1716657],[86.0927574,25.1716263],[86.0933533,25.1716005],[86.0939242,25.1715944],[86.095153,25.1715935],[86.0956038,25.1715893]]}},{"type":"Feature","properties":{"corridor":"NEO-JTDM-DHWN-BEHS-KIUL","segment":"NEO-JTDM-DHWN-BEHS-KIUL","@id":"way/1272904231","usage":"branch"},"geometry":{"type":"LineString","coordinates":[[85.8240581,25.1307447],[85.8169851,25.1311527],[85.8083057,25.1316655],[85.8025014,25.1320271]]}},{"type":"Feature","properties":{"corridor":"NEO-JTDM-DHWN-BEHS-KIUL","segment":"NEO-JTDM-DHWN-BEHS-KIUL","@id":"way/1272897522","name":"Neora - Daniwan Line","usage":"main"},"geometry":{"type":"LineString","coordinates":[[85.0427839,25.5416736],[85.0423497,25.5432474],[85.04206,25.5441597],[85.0417381,25.5449729],[85.0413948,25.5456456],[85.0410489,25.5461708],[85.0407001,25.5466257],[85.0402737,25.5470758],[85.0395887,25.5477144],[85.0372937,25.5498031],[85.0351989,25.5517633],[85.0332087,25.5541153],[85.0322496,25.5549572]]}},{"type":"Feature","properties":{"corridor":"NEO-JTDM-DHWN-BEHS-KIUL","segment":"NEO-JTDM-DHWN-BEHS-KIUL","@id":"way/912411966","name":"Patna - Gaya","usage":"main"},"geometry":{"type":"LineString","coordinates":[[85.0931477,25.4675889],[85.0933938,25.4682942],[85.0955253,25.4749387],[85.0957454,25.4756552],[85.098239,25.4834923]]}},{"type":"Feature","properties":{"corridor":"NEO-JTDM-DHWN-BEHS-KIUL","segment":"NEO-JTDM-DHWN-BEHS-KIUL","@id":"way/517876892","usage":"main"},"geometry":{"type":"LineString","coordinates":[[86.1283355,25.1715842],[86.1153053,25.1716899],[86.1144417,25.1717043],[86.1134292,25.1717433],[86.1129724,25.1717699],[86.1123272,25.171766],[86.1120434,25.1717821],[86.1116263,25.1717931],[86.1106654,25.1717313]]}},{"type":"Feature","properties":{"corridor":"NEO-JTDM-DHWN-BEHS-KIUL","segment":"NEO-JTDM-DHWN-BEHS-KIUL","@id":"way/1155178749","usage":"branch"},"geometry":{"type":"LineString","coordinates":[[85.8023386,25.1320372],[85.8010181,25.1321195],[85.8004871,25.1321754],[85.7998005,25.1323016],[85.7990548,25.1325469],[85.7982502,25.1329039],[85.7974964,25.1333531],[85.7967561,25.1339747],[85.7960802,25.1347129],[85.795576,25.1354414],[85.7951361,25.1363932],[85.7948786,25.1373451],[85.7947391,25.1382386],[85.7941587,25.1429819]]}},{"type":"Feature","properties":{"corridor":"NEO-JTDM-DHWN-BEHS-KIUL","segment":"NEO-JTDM-DHWN-BEHS-KIUL","@id":"way/1272897462","name":"Neora - Daniwan Line","usage":"main"},"geometry":{"type":"LineString","coordinates":[[85.2345019,25.4232004],[85.2287149,25.4247396],[85.2275562,25.4250012],[85.2265477,25.4251853],[85.2206602,25.4259702],[85.2203683,25.4260124]]}},{"type":"Feature","properties":{"corridor":"NEO-JTDM-DHWN-BEHS-KIUL","segment":"NEO-JTDM-DHWN-BEHS-KIUL","@id":"way/1272897513","name":"Neora - Daniwan Line","usage":"main"},"geometry":{"type":"LineString","coordinates":[[85.0463902,25.5285123],[85.0446993,25.534731],[85.0431538,25.5403328]]}},{"type":"Feature","properties":{"corridor":"NEO-JTDM-DHWN-BEHS-KIUL","segment":"NEO-JTDM-DHWN-BEHS-KIUL","@id":"way/1289807669","name":"Neora - Daniwan Line","usage":"main"},"geometry":{"type":"LineString","coordinates":[[85.092244,25.4636723],[85.0922676,25.4639503],[85.0923253,25.4642593],[85.0923943,25.4645336],[85.0924695,25.4648315],[85.0926679,25.4654732],[85.0927983,25.4658859],[85.0932232,25.4672313],[85.0933197,25.4675388],[85.0935772,25.4683428],[85.0939634,25.4694059],[85.0940627,25.4696916],[85.0948673,25.4722148],[85.0949585,25.472503],[85.0953206,25.4737984],[85.0954279,25.474227],[85.0955698,25.4749257]]}},{"type":"Feature","properties":{"corridor":"NEO-JTDM-DHWN-BEHS-KIUL","segment":"NEO-JTDM-DHWN-BEHS-KIUL","@id":"way/1272904237","usage":"branch"},"geometry":{"type":"LineString","coordinates":[[85.7933372,25.1499797],[85.7933229,25.1501895],[85.7930946,25.1521606],[85.7928723,25.1541129],[85.7928267,25.1549894],[85.7928506,25.156436],[85.7928935,25.157883],[85.7929855,25.1607746]]}},{"type":"Feature","properties":{"corridor":"NEO-JTDM-DHWN-BEHS-KIUL","segment":"NEO-JTDM-DHWN-BEHS-KIUL","@id":"way/1272897533","name":"Neora - Daniwan Line","usage":"main"},"geometry":{"type":"LineString","coordinates":[[85.0185083,25.567734],[85.0237389,25.5627382],[85.0262921,25.5603201]]}},{"type":"Feature","properties":{"corridor":"NEO-JTDM-DHWN-BEHS-KIUL","segment":"NEO-JTDM-DHWN-BEHS-KIUL","@id":"way/135561087","name":"Howrah - Delhi Railway","usage":"main"},"geometry":{"type":"LineString","coordinates":[[86.1110652,25.1716759],[86.1106038,25.1716792],[86.1102819,25.171672],[86.1100264,25.1716583],[86.1096397,25.1716154],[86.1088087,25.1715297],[86.1084144,25.1714957],[86.1081033,25.1714745],[86.1078103,25.1714632],[86.1012824,25.171492],[86.1008277,25.1715017],[86.1004308,25.1715017],[86.1000207,25.1715002]]}},{"type":"Feature","properties":{"corridor":"NEO-JTDM-DHWN-BEHS-KIUL","segment":"NEO-JTDM-DHWN-BEHS-KIUL","@id":"way/912411961","name":"Patna - Gaya","usage":"main"},"geometry":{"type":"LineString","coordinates":[[85.0897203,25.4579862],[85.0917126,25.4629775],[85.0921467,25.4642192],[85.0923202,25.4647057],[85.0931189,25.4672463]]}},{"type":"Feature","properties":{"corridor":"NEO-JTDM-DHWN-BEHS-KIUL","segment":"NEO-JTDM-DHWN-BEHS-KIUL","@id":"way/1318057410","name":"Howrah - Delhi Railway","usage":"main"},"geometry":{"type":"LineString","coordinates":[[86.1000204,25.1715681],[86.1004114,25.1715595],[86.1012295,25.1715571],[86.1016077,25.1715692],[86.1020388,25.1716012],[86.1032556,25.1717113],[86.1035553,25.1717278],[86.1038941,25.1717431],[86.1042052,25.1717505],[86.1103466,25.1717273],[86.1106654,25.1717313]]}},{"type":"Feature","properties":{"corridor":"NEO-JTDM-DHWN-BEHS-KIUL","segment":"NEO-JTDM-DHWN-BEHS-KIUL","@id":"way/912411965","name":"Patna - Gaya","usage":"main"},"geometry":{"type":"LineString","coordinates":[[85.1004447,25.4928596],[85.1004724,25.492998],[85.1006548,25.4939265],[85.1007012,25.494212],[85.1007481,25.4945921],[85.1007785,25.4950473],[85.1007891,25.4953442],[85.1007454,25.4968158],[85.100754,25.4972119],[85.1007789,25.4976195],[85.1008276,25.4980247],[85.100901,25.4984378],[85.1009989,25.4988687],[85.101101,25.4992366],[85.1012349,25.4996144],[85.1013732,25.499962],[85.1015435,25.5003167],[85.101724,25.500651],[85.1019071,25.5009625]]}},{"type":"Feature","properties":{"corridor":"NEO-JTDM-DHWN-BEHS-KIUL","segment":"NEO-JTDM-DHWN-BEHS-KIUL","@id":"way/1272907471","name":"Daniyawan - Bihar Sharif","usage":"main"},"geometry":{"type":"LineString","coordinates":[[85.2856422,25.4173231],[85.2857816,25.4177264],[85.2858889,25.4179832],[85.2859854,25.4181903],[85.2861592,25.4185916],[85.2862325,25.418759],[85.2871416,25.4212283],[85.2872987,25.4216427],[85.2873494,25.4218108],[85.2875131,25.4224232],[85.2875854,25.4226417],[85.2878218,25.4232935],[85.28793,25.4237233]]}},{"type":"Feature","properties":{"corridor":"NEO-JTDM-DHWN-BEHS-KIUL","segment":"NEO-JTDM-DHWN-BEHS-KIUL","@id":"way/902553789","name":"Neora - Daniwan Line","usage":"main"},"geometry":{"type":"LineString","coordinates":[[85.2843311,25.430834],[85.2860284,25.430718],[85.2868545,25.4308149],[85.2876055,25.4310474],[85.2881712,25.4313131],[85.2886784,25.4315513],[85.2892982,25.4320763],[85.2900624,25.4327236],[85.2906418,25.4333534]]}},{"type":"Feature","properties":{"corridor":"NEO-JTDM-DHWN-BEHS-KIUL","segment":"NEO-JTDM-DHWN-BEHS-KIUL","@id":"way/1053457498","name":"Patna - Gaya","usage":"main"},"geometry":{"type":"LineString","coordinates":[[85.0988656,25.4853916],[85.0989635,25.4857807],[85.0990332,25.4861028],[85.1001422,25.4914259],[85.1002529,25.4919026]]}},{"type":"Feature","properties":{"corridor":"NEO-JTDM-DHWN-BEHS-KIUL","segment":"NEO-JTDM-DHWN-BEHS-KIUL","@id":"way/1272904233","usage":"branch"},"geometry":{"type":"LineString","coordinates":[[85.794143,25.1431096],[85.7940549,25.1438302],[85.7934106,25.1494153]]}},{"type":"Feature","properties":{"corridor":"NEO-JTDM-DHWN-BEHS-KIUL","segment":"NEO-JTDM-DHWN-BEHS-KIUL","@id":"way/1272897464","name":"Neora - Daniwan Line","usage":"main"},"geometry":{"type":"LineString","coordinates":[[85.2197753,25.4260939],[85.2130931,25.4269857]]}},{"type":"Feature","properties":{"corridor":"NEO-JTDM-DHWN-BEHS-KIUL","segment":"NEO-JTDM-DHWN-BEHS-KIUL","@id":"way/1272904235","usage":"branch"},"geometry":{"type":"LineString","coordinates":[[85.7929954,25.1612017],[85.793041,25.162651],[85.7930946,25.1641004],[85.7933334,25.167125]]}},{"type":"Feature","properties":{"corridor":"NEO-JTDM-DHWN-BEHS-KIUL","segment":"NEO-JTDM-DHWN-BEHS-KIUL","@id":"way/1272897528","name":"Neora - Daniwan Line","usage":"main"},"geometry":{"type":"LineString","coordinates":[[85.0309178,25.5562614],[85.0300007,25.5570869],[85.0278658,25.558921],[85.0265292,25.5601918]]}},{"type":"Feature","properties":{"corridor":"NEO-JTDM-DHWN-BEHS-KIUL","segment":"NEO-JTDM-DHWN-BEHS-KIUL","@id":"way/1272897527","name":"Neora - Daniwan Line","usage":"main"},"geometry":{"type":"LineString","coordinates":[[85.0264915,25.5601226],[85.0278121,25.5588678],[85.0299616,25.5570106],[85.0308652,25.5562115]]}},{"type":"Feature","properties":{"corridor":"NEO-JTDM-DHWN-BEHS-KIUL","segment":"NEO-JTDM-DHWN-BEHS-KIUL","@id":"way/1272897487","name":"Neora - Daniwan Line","usage":"main"},"geometry":{"type":"LineString","coordinates":[[85.1815389,25.431501],[85.1794239,25.4320696],[85.177584,25.4325492],[85.1759854,25.4330434]]}},{"type":"Feature","properties":{"corridor":"NEO-JTDM-DHWN-BEHS-KIUL","segment":"NEO-JTDM-DHWN-BEHS-KIUL","@id":"way/66661883","name":"Howrah - Delhi Railway","usage":"main"},"geometry":{"type":"LineString","coordinates":[[86.0956038,25.1715893],[86.1000204,25.1715681]]}},{"type":"Feature","properties":{"corridor":"NEO-JTDM-DHWN-BEHS-KIUL","segment":"NEO-JTDM-DHWN-BEHS-KIUL","@id":"way/517876894","name":"Howrah - Delhi Railway","usage":"main"},"geometry":{"type":"LineString","coordinates":[[86.1000207,25.1715002],[86.095605,25.1715258]]}},{"type":"Feature","properties":{"corridor":"NEO-JTDM-DHWN-BEHS-KIUL","segment":"NEO-JTDM-DHWN-BEHS-KIUL","@id":"way/1272897425","name":"Neora - Daniwan Line","usage":"main"},"geometry":{"type":"LineString","coordinates":[[85.0158511,25.5704106],[85.0128394,25.5733129]]}},{"type":"Feature","properties":{"corridor":"NEO-JTDM-DHWN-BEHS-KIUL","segment":"NEO-JTDM-DHWN-BEHS-KIUL","@id":"way/1272897429","name":"Neora - Daniwan Line","usage":"main"},"geometry":{"type":"LineString","coordinates":[[85.0128434,25.5732521],[85.0158195,25.5703804]]}},{"type":"Feature","properties":{"corridor":"NEO-JTDM-DHWN-BEHS-KIUL","segment":"NEO-JTDM-DHWN-BEHS-KIUL","@id":"way/1272897442","name":"Neora - Daniwan Line","usage":"main"},"geometry":{"type":"LineString","coordinates":[[85.0546495,25.4996646],[85.0559288,25.4962559]]}},{"type":"Feature","properties":{"corridor":"NEO-JTDM-DHWN-BEHS-KIUL","segment":"NEO-JTDM-DHWN-BEHS-KIUL","@id":"way/1272897436","name":"Neora - Daniwan Line","usage":"main"},"geometry":{"type":"LineString","coordinates":[[85.0560138,25.4962846],[85.0547403,25.4996836]]}},{"type":"Feature","properties":{"corridor":"NEO-JTDM-DHWN-BEHS-KIUL","segment":"NEO-JTDM-DHWN-BEHS-KIUL","@id":"way/1272904194","usage":"main"},"geometry":{"type":"LineString","coordinates":[[85.9203842,25.1337371],[85.9205182,25.1337287],[85.9241924,25.1336604]]}},{"type":"Feature","properties":{"corridor":"NEO-JTDM-DHWN-BEHS-KIUL","segment":"NEO-JTDM-DHWN-BEHS-KIUL","@id":"way/1272897423","name":"Neora - Daniwan Line","usage":"main"},"geometry":{"type":"LineString","coordinates":[[85.0159184,25.570284],[85.0182833,25.5679531]]}},{"type":"Feature","properties":{"corridor":"NEO-JTDM-DHWN-BEHS-KIUL","segment":"NEO-JTDM-DHWN-BEHS-KIUL","@id":"way/1272897506","name":"Neora - Daniwan Line","usage":"main"},"geometry":{"type":"LineString","coordinates":[[85.0547403,25.4996836],[85.0542844,25.5009914],[85.0539113,25.5022145]]}},{"type":"Feature","properties":{"corridor":"NEO-JTDM-DHWN-BEHS-KIUL","segment":"NEO-JTDM-DHWN-BEHS-KIUL","@id":"way/1272897505","name":"Neora - Daniwan Line","usage":"main"},"geometry":{"type":"LineString","coordinates":[[85.0530735,25.5046852],[85.0538054,25.5021793]]}},{"type":"Feature","properties":{"corridor":"NEO-JTDM-DHWN-BEHS-KIUL","segment":"NEO-JTDM-DHWN-BEHS-KIUL","@id":"way/1272897503","name":"Neora - Daniwan Line","usage":"main"},"geometry":{"type":"LineString","coordinates":[[85.0539113,25.5022145],[85.0531668,25.5046555]]}},{"type":"Feature","properties":{"corridor":"NEO-JTDM-DHWN-BEHS-KIUL","segment":"NEO-JTDM-DHWN-BEHS-KIUL","@id":"way/912411970","name":"Patna - Gaya","usage":"main"},"geometry":{"type":"LineString","coordinates":[[85.0982883,25.4834769],[85.0987242,25.4848983],[85.0987668,25.4850301],[85.0988656,25.4853916]]}},{"type":"Feature","properties":{"corridor":"NEO-JTDM-DHWN-BEHS-KIUL","segment":"NEO-JTDM-DHWN-BEHS-KIUL","@id":"way/1272897526","name":"Neora - Daniwan Line","usage":"main"},"geometry":{"type":"LineString","coordinates":[[85.0322496,25.5549572],[85.0309178,25.5562614]]}},{"type":"Feature","properties":{"corridor":"NEO-JTDM-DHWN-BEHS-KIUL","segment":"NEO-JTDM-DHWN-BEHS-KIUL","@id":"way/1272897525","name":"Neora - Daniwan Line","usage":"main"},"geometry":{"type":"LineString","coordinates":[[85.0308652,25.5562115],[85.0321932,25.5549063]]}},{"type":"Feature","properties":{"corridor":"NEO-JTDM-DHWN-BEHS-KIUL","segment":"NEO-JTDM-DHWN-BEHS-KIUL","@id":"way/1272904228","usage":"main"},"geometry":{"type":"LineString","coordinates":[[85.5627812,25.189779],[85.5609226,25.190088]]}},{"type":"Feature","properties":{"corridor":"NEO-JTDM-DHWN-BEHS-KIUL","segment":"NEO-JTDM-DHWN-BEHS-KIUL","@id":"way/1272897444","name":"Neora - Daniwan Line","usage":"main"},"geometry":{"type":"LineString","coordinates":[[85.0964327,25.4763829],[85.0961199,25.4780405]]}},{"type":"Feature","properties":{"corridor":"NEO-JTDM-DHWN-BEHS-KIUL","segment":"NEO-JTDM-DHWN-BEHS-KIUL","@id":"way/1272897453","name":"Neora - Daniwan Line","usage":"main"},"geometry":{"type":"LineString","coordinates":[[85.2602785,25.4230144],[85.2586891,25.4228544]]}},{"type":"Feature","properties":{"corridor":"NEO-JTDM-DHWN-BEHS-KIUL","segment":"NEO-JTDM-DHWN-BEHS-KIUL","@id":"way/1272897497","name":"Neora - Daniwan Line","usage":"main"},"geometry":{"type":"LineString","coordinates":[[85.1274079,25.4460164],[85.1258764,25.4462755]]}},{"type":"Feature","properties":{"corridor":"NEO-JTDM-DHWN-BEHS-KIUL","segment":"NEO-JTDM-DHWN-BEHS-KIUL","@id":"way/1272897485","name":"Neora - Daniwan Line","usage":"main"},"geometry":{"type":"LineString","coordinates":[[85.1757547,25.4331112],[85.1743088,25.4335572]]}},{"type":"Feature","properties":{"corridor":"NEO-JTDM-DHWN-BEHS-KIUL","segment":"NEO-JTDM-DHWN-BEHS-KIUL","@id":"way/1272897437","name":"Neora - Daniwan Line","usage":"main"},"geometry":{"type":"LineString","coordinates":[[85.0559815,25.4961155],[85.0564688,25.4948172]]}},{"type":"Feature","properties":{"corridor":"NEO-JTDM-DHWN-BEHS-KIUL","segment":"NEO-JTDM-DHWN-BEHS-KIUL","@id":"way/517876898","name":"Delhi\u2013Howrah railway","usage":"main"},"geometry":{"type":"LineString","coordinates":[[86.1008277,25.1715017],[86.1011753,25.1715203],[86.1012971,25.1715248],[86.1016016,25.1715273],[86.1017679,25.1715369],[86.1022273,25.1715741]]}},{"type":"Feature","properties":{"corridor":"NEO-JTDM-DHWN-BEHS-KIUL","segment":"NEO-JTDM-DHWN-BEHS-KIUL","@id":"way/1272897483","name":"Neora - Daniwan Line","usage":"main"},"geometry":{"type":"LineString","coordinates":[[85.1740807,25.4336226],[85.1727614,25.4340099]]}},{"type":"Feature","properties":{"corridor":"NEO-JTDM-DHWN-BEHS-KIUL","segment":"NEO-JTDM-DHWN-BEHS-KIUL","@id":"way/1272897518","name":"Neora - Daniwan Line","usage":"main"},"geometry":{"type":"LineString","coordinates":[[85.0427581,25.5415541],[85.0430658,25.5404189]]}},{"type":"Feature","properties":{"corridor":"NEO-JTDM-DHWN-BEHS-KIUL","segment":"NEO-JTDM-DHWN-BEHS-KIUL","@id":"way/1272897517","name":"Neora - Daniwan Line","usage":"main"},"geometry":{"type":"LineString","coordinates":[[85.0431268,25.5404308],[85.0428153,25.54156]]}},{"type":"Feature","properties":{"corridor":"NEO-JTDM-DHWN-BEHS-KIUL","segment":"NEO-JTDM-DHWN-BEHS-KIUL","@id":"way/912411973","name":"Patna - Gaya","usage":"main"},"geometry":{"type":"LineString","coordinates":[[85.1019071,25.5009625],[85.1024422,25.5019707]]}},{"type":"Feature","properties":{"corridor":"NEO-JTDM-DHWN-BEHS-KIUL","segment":"NEO-JTDM-DHWN-BEHS-KIUL","@id":"way/1272897434","name":"Neora - Daniwan Line","usage":"main"},"geometry":{"type":"LineString","coordinates":[[85.0565964,25.4945326],[85.057016,25.4935268]]}},{"type":"Feature","properties":{"corridor":"NEO-JTDM-DHWN-BEHS-KIUL","segment":"NEO-JTDM-DHWN-BEHS-KIUL","@id":"way/1272907472","name":"Fatuha - Natesar","usage":"main"},"geometry":{"type":"LineString","coordinates":[[85.2884841,25.4253803],[85.2887235,25.4260182],[85.2888873,25.4263542]]}},{"type":"Feature","properties":{"corridor":"NEO-JTDM-DHWN-BEHS-KIUL","segment":"NEO-JTDM-DHWN-BEHS-KIUL","@id":"way/1053457494","name":"Patna - Gaya","usage":"main"},"geometry":{"type":"LineString","coordinates":[[85.1002529,25.4919026],[85.1004192,25.4927322],[85.1004447,25.4928596]]}},{"type":"Feature","properties":{"corridor":"NEO-JTDM-DHWN-BEHS-KIUL","segment":"NEO-JTDM-DHWN-BEHS-KIUL","@id":"way/1318057393","name":"Howrah - Delhi Railway","usage":"main"},"geometry":{"type":"LineString","coordinates":[[86.1106654,25.1717313],[86.1116848,25.1717246]]}},{"type":"Feature","properties":{"corridor":"NEO-JTDM-DHWN-BEHS-KIUL","segment":"NEO-JTDM-DHWN-BEHS-KIUL","@id":"way/247611430","name":"Fatuha - Natesar","usage":"main"},"geometry":{"type":"LineString","coordinates":[[85.291971,25.4425728],[85.2919486,25.4432833]]}},{"type":"Feature","properties":{"corridor":"NEO-JTDM-DHWN-BEHS-KIUL","segment":"NEO-JTDM-DHWN-BEHS-KIUL","@id":"way/816826814","usage":"main"},"geometry":{"type":"LineString","coordinates":[[85.9911365,25.1345397],[85.9918061,25.1348024]]}},{"type":"Feature","properties":{"corridor":"NEO-JTDM-DHWN-BEHS-KIUL","segment":"NEO-JTDM-DHWN-BEHS-KIUL","@id":"way/1155178750","usage":"branch"},"geometry":{"type":"LineString","coordinates":[[85.7934106,25.1494153],[85.7933372,25.1499797]]}},{"type":"Feature","properties":{"corridor":"NEO-JTDM-DHWN-BEHS-KIUL","segment":"NEO-JTDM-DHWN-BEHS-KIUL","@id":"way/1272897463","name":"Neora - Daniwan Line","usage":"main"},"geometry":{"type":"LineString","coordinates":[[85.2203683,25.4260124],[85.2197753,25.4260939]]}},{"type":"Feature","properties":{"corridor":"NEO-JTDM-DHWN-BEHS-KIUL","segment":"NEO-JTDM-DHWN-BEHS-KIUL","@id":"way/1272897488","name":"Neora - Daniwan Line","usage":"main"},"geometry":{"type":"LineString","coordinates":[[85.1824108,25.431274],[85.1818444,25.4314189]]}},{"type":"Feature","properties":{"corridor":"NEO-JTDM-DHWN-BEHS-KIUL","segment":"NEO-JTDM-DHWN-BEHS-KIUL","@id":"way/1053457519","name":"Neora - Daniwan Line","usage":"main"},"geometry":{"type":"LineString","coordinates":[[85.0963701,25.4758652],[85.0964265,25.4761342],[85.0964327,25.4763829]]}},{"type":"Feature","properties":{"corridor":"NEO-JTDM-DHWN-BEHS-KIUL","segment":"NEO-JTDM-DHWN-BEHS-KIUL","@id":"way/695615966","name":"Daniyawan - Bihar Sharif","usage":"main"},"geometry":{"type":"LineString","coordinates":[[85.5178023,25.2573458],[85.5172593,25.2573712]]}},{"type":"Feature","properties":{"corridor":"NEO-JTDM-DHWN-BEHS-KIUL","segment":"NEO-JTDM-DHWN-BEHS-KIUL","@id":"way/1272907470","name":"Daniyawan - Bihar Sharif","usage":"main"},"geometry":{"type":"LineString","coordinates":[[85.2854155,25.4168894],[85.2855912,25.417346]]}},{"type":"Feature","properties":{"corridor":"NEO-JTDM-DHWN-BEHS-KIUL","segment":"NEO-JTDM-DHWN-BEHS-KIUL","@id":"way/1272904230","usage":"branch"},"geometry":{"type":"LineString","coordinates":[[85.8245787,25.1307087],[85.8240581,25.1307447]]}},{"type":"Feature","properties":{"corridor":"NEO-JTDM-DHWN-BEHS-KIUL","segment":"NEO-JTDM-DHWN-BEHS-KIUL","@id":"way/943745262","name":"Daniyawan - Bihar Sharif","usage":"main"},"geometry":{"type":"LineString","coordinates":[[85.5338001,25.2417361],[85.5336204,25.2421777]]}},{"type":"Feature","properties":{"corridor":"NEO-JTDM-DHWN-BEHS-KIUL","segment":"NEO-JTDM-DHWN-BEHS-KIUL","@id":"way/1272904234","usage":"branch"},"geometry":{"type":"LineString","coordinates":[[85.7929855,25.1607746],[85.7929954,25.1612017]]}},{"type":"Feature","properties":{"corridor":"NEO-JTDM-DHWN-BEHS-KIUL","segment":"NEO-JTDM-DHWN-BEHS-KIUL","@id":"way/695015083","name":"Daniyawan - Bihar Sharif","usage":"main"},"geometry":{"type":"LineString","coordinates":[[85.4023374,25.3077324],[85.4020047,25.3080082]]}},{"type":"Feature","properties":{"corridor":"NEO-JTDM-DHWN-BEHS-KIUL","segment":"NEO-JTDM-DHWN-BEHS-KIUL","@id":"way/912411962","name":"Patna - Gaya","usage":"main"},"geometry":{"type":"LineString","coordinates":[[85.0895803,25.4576101],[85.0897203,25.4579862]]}},{"type":"Feature","properties":{"corridor":"NEO-JTDM-DHWN-BEHS-KIUL","segment":"NEO-JTDM-DHWN-BEHS-KIUL","@id":"way/696387130","name":"Daniyawan - Bihar Sharif","usage":"main"},"geometry":{"type":"LineString","coordinates":[[85.3698818,25.3440991],[85.3695688,25.3443534]]}},{"type":"Feature","properties":{"corridor":"NEO-JTDM-DHWN-BEHS-KIUL","segment":"NEO-JTDM-DHWN-BEHS-KIUL","@id":"way/1272897461","name":"Neora - Daniwan Line","usage":"main"},"geometry":{"type":"LineString","coordinates":[[85.2348898,25.4230972],[85.2345019,25.4232004]]}},{"type":"Feature","properties":{"corridor":"NEO-JTDM-DHWN-BEHS-KIUL","segment":"NEO-JTDM-DHWN-BEHS-KIUL","@id":"way/1272904236","usage":"branch"},"geometry":{"type":"LineString","coordinates":[[85.7933334,25.167125],[85.79336,25.1674768]]}},{"type":"Feature","properties":{"corridor":"NEO-JTDM-DHWN-BEHS-KIUL","segment":"NEO-JTDM-DHWN-BEHS-KIUL","@id":"way/1272897530","name":"Neora - Daniwan Line","usage":"main"},"geometry":{"type":"LineString","coordinates":[[85.0265292,25.5601918],[85.0263149,25.5603893]]}},{"type":"Feature","properties":{"corridor":"NEO-JTDM-DHWN-BEHS-KIUL","segment":"NEO-JTDM-DHWN-BEHS-KIUL","@id":"way/1272897486","name":"Neora - Daniwan Line","usage":"main"},"geometry":{"type":"LineString","coordinates":[[85.1759854,25.4330434],[85.1757547,25.4331112]]}},{"type":"Feature","properties":{"corridor":"NEO-JTDM-DHWN-BEHS-KIUL","segment":"NEO-JTDM-DHWN-BEHS-KIUL","@id":"way/1093764987","usage":"branch"},"geometry":{"type":"LineString","coordinates":[[85.8025014,25.1320271],[85.8023386,25.1320372]]}},{"type":"Feature","properties":{"corridor":"NEO-JTDM-DHWN-BEHS-KIUL","segment":"NEO-JTDM-DHWN-BEHS-KIUL","@id":"way/340256692","name":"Daniyawan - Bihar Sharif","usage":"main"},"geometry":{"type":"LineString","coordinates":[[85.3030484,25.3972223],[85.302922,25.3972804]]}},{"type":"Feature","properties":{"corridor":"NEO-JTDM-DHWN-BEHS-KIUL","segment":"NEO-JTDM-DHWN-BEHS-KIUL","@id":"way/1272897511","name":"Neora - Daniwan Line","usage":"main"},"geometry":{"type":"LineString","coordinates":[[85.0463196,25.5284963],[85.0463495,25.5283875]]}},{"type":"Feature","properties":{"corridor":"NEO-JTDM-DHWN-BEHS-KIUL","segment":"NEO-JTDM-DHWN-BEHS-KIUL","@id":"way/1272904193","usage":"main"},"geometry":{"type":"LineString","coordinates":[[85.9241924,25.1336604],[85.9242587,25.1336587]]}},{"type":"Feature","properties":{"corridor":"RGD-BKP-MKA","segment":"RGD-BKP","@id":"way/695615971","name":"Natesar - Bakhtiyarpur","usage":"main"},"geometry":{"type":"LineString","coordinates":[[85.5442779,25.4215534],[85.544433,25.4199514],[85.5452693,25.410715],[85.5457836,25.4054183],[85.5465307,25.39761],[85.5465914,25.3967593],[85.5466675,25.3956918],[85.5466545,25.3950593],[85.5465861,25.3944208],[85.5462924,25.3932622],[85.5460418,25.3922739],[85.5459041,25.3917305],[85.5450484,25.3884442],[85.5428622,25.3800482],[85.5421667,25.3772861],[85.5419891,25.3765805],[85.5404696,25.3705451],[85.5400143,25.3688196],[85.5395461,25.3671235],[85.5382006,25.3620945],[85.5373341,25.3585423],[85.5372695,25.3582922],[85.5367282,25.3561968],[85.5339681,25.3457014],[85.5328156,25.3411167],[85.5326243,25.3397309],[85.5324899,25.3373331],[85.5323417,25.333674],[85.5322009,25.3263216],[85.5321484,25.3240272],[85.5321202,25.3231499],[85.5317716,25.3123096],[85.531731,25.3094381],[85.5314786,25.3015038],[85.5310156,25.2846232],[85.5309412,25.2808007],[85.5307994,25.2769739],[85.5307405,25.2735612],[85.5306171,25.2705244],[85.5298786,25.2637161],[85.5290633,25.2569076],[85.5289687,25.2552186],[85.5290142,25.2544685],[85.5290687,25.2538466],[85.5291665,25.2532034],[85.5293714,25.2525086],[85.5296286,25.2518308],[85.5299189,25.2511258],[85.5310609,25.2484577],[85.5327681,25.2444265],[85.5337283,25.242201]]}},{"type":"Feature","properties":{"corridor":"RGD-BKP-MKA","segment":"RGD-BKP","@id":"way/247651821","name":"Natesar - Bakhtiyarpur","usage":"main"},"geometry":{"type":"LineString","coordinates":[[85.496617,25.1505446],[85.4951862,25.1502352],[85.4937766,25.1499304],[85.4925748,25.1496705],[85.4912759,25.1492996],[85.4902581,25.1488911],[85.4893976,25.1483687],[85.4884652,25.147673],[85.4879076,25.1471529],[85.4874249,25.1465545],[85.4865955,25.145362],[85.4823253,25.1387464],[85.481276,25.1372075],[85.4806149,25.1363811],[85.4798555,25.1356378],[85.4797588,25.1355431],[85.46313,25.1227387],[85.4597613,25.1201527],[85.4585659,25.1192103],[85.4577869,25.1184137],[85.4573318,25.1177975],[85.4507295,25.1065661],[85.4438391,25.0951551],[85.4411211,25.0904649]]}},{"type":"Feature","properties":{"corridor":"RGD-BKP-MKA","segment":"RGD-BKP","@id":"way/713403204","name":"Natesar - Bakhtiyarpur","usage":"main"},"geometry":{"type":"LineString","coordinates":[[85.4410699,25.0903722],[85.4392039,25.0872061],[85.4391467,25.0871091],[85.4370313,25.0836851],[85.4361007,25.0821712],[85.4355723,25.0813234],[85.4352316,25.0807404],[85.4348615,25.0798974],[85.4345986,25.0790156],[85.4343733,25.0779394],[85.4343012,25.0775762],[85.4339316,25.0736249],[85.433323,25.066645],[85.4331613,25.0647418],[85.432971,25.0634743],[85.4327135,25.0624399],[85.4320306,25.0608175],[85.4309752,25.0592878],[85.4291913,25.0567884],[85.4259921,25.0522414],[85.4225476,25.0475044],[85.421779,25.0464507],[85.4209059,25.0450512],[85.4195758,25.0428291],[85.4182987,25.0398981],[85.4181031,25.0394375],[85.4173904,25.0377591],[85.4162145,25.0353441],[85.4150197,25.0327006],[85.414439,25.0315119],[85.4143561,25.0313807],[85.4139192,25.0306887],[85.4137112,25.030452]]}},{"type":"Feature","properties":{"corridor":"RGD-BKP-MKA","segment":"RGD-BKP","@id":"way/900744347","usage":"main"},"geometry":{"type":"LineString","coordinates":[[85.5430099,25.4360947],[85.5429752,25.436823],[85.5429068,25.4375181],[85.5428478,25.4381479],[85.5427914,25.4387304],[85.5427697,25.4390564],[85.5427593,25.4392123],[85.5427579,25.4397973],[85.5427861,25.4401812],[85.5428236,25.440454],[85.5428558,25.4406838],[85.5429698,25.4412021],[85.5431683,25.4419227],[85.543407,25.4428055],[85.5436189,25.443583],[85.5438737,25.4445288],[85.5440776,25.4452881],[85.5442237,25.4456987],[85.5444102,25.4461007],[85.5446475,25.4464931],[85.5449332,25.4468721],[85.5452108,25.4471821],[85.5456292,25.4475793],[85.5464808,25.4482078],[85.5474732,25.4489223],[85.5482819,25.4495423],[85.5491067,25.4501284],[85.5499489,25.4507206],[85.550712,25.4512571],[85.5515784,25.4518662],[85.5524943,25.4525419],[85.5533768,25.4531788],[85.5537094,25.453415],[85.5539628,25.4535639],[85.5541586,25.4536584],[85.5546562,25.45388],[85.5549056,25.4539684]]}},{"type":"Feature","properties":{"corridor":"RGD-BKP-MKA","segment":"RGD-BKP","@id":"way/66661881","name":"Natesar - Bakhtiyarpur","usage":"main"},"geometry":{"type":"LineString","coordinates":[[85.5408168,25.4545137],[85.540969,25.454502],[85.5414163,25.4544677],[85.5416961,25.454419],[85.5419604,25.4543589],[85.5422062,25.454303],[85.5428451,25.45407],[85.5429894,25.4539893],[85.5433202,25.4538044],[85.5436595,25.4535484],[85.5437442,25.4534844],[85.5440702,25.4531817],[85.5441667,25.4530921],[85.5442536,25.4529842],[85.5444792,25.452704],[85.5447782,25.4522444],[85.5449271,25.4519297],[85.545047,25.4515958],[85.5451109,25.4512782],[85.5451644,25.4510128],[85.5451742,25.4507263],[85.5451819,25.4504846],[85.5451805,25.4503482],[85.5451688,25.4502477],[85.5451636,25.4501363],[85.54506,25.4496119],[85.5449258,25.4490513],[85.5447087,25.4481913],[85.5428073,25.4413351],[85.5426914,25.4404773],[85.5426314,25.4401022],[85.5426329,25.4387589],[85.542815,25.4371115],[85.5428764,25.4365529],[85.5429301,25.4358632]]}},{"type":"Feature","properties":{"corridor":"RGD-BKP-MKA","segment":"RGD-BKP","@id":"way/695027615","name":"Natesar - Bakhtiyarpur","usage":"main"},"geometry":{"type":"LineString","coordinates":[[85.4136059,25.0303322],[85.4132672,25.0299468],[85.4123123,25.0290116],[85.4079439,25.0258182],[85.4052834,25.0238933]]}},{"type":"Feature","properties":{"corridor":"RGD-BKP-MKA","segment":"RGD-BKP","@id":"way/754337801","name":"Natesar - Bakhtiyarpur","usage":"main"},"geometry":{"type":"LineString","coordinates":[[85.5335862,25.4555078],[85.534077,25.4554109],[85.5352204,25.4551966],[85.5359059,25.4550806],[85.5379233,25.4547885],[85.5386287,25.4547134],[85.5396205,25.454619],[85.5408168,25.4545137]]}},{"type":"Feature","properties":{"corridor":"RGD-BKP-MKA","segment":"RGD-BKP","@id":"way/900744349","usage":"main"},"geometry":{"type":"LineString","coordinates":[[85.5429771,25.4361291],[85.5429076,25.4367724],[85.5428428,25.4374327],[85.5428244,25.4376202],[85.5427694,25.4382863],[85.5427464,25.4385829],[85.5427198,25.4389257],[85.5427118,25.4396136],[85.5427131,25.4399043],[85.5427533,25.4404235]]}},{"type":"Feature","properties":{"corridor":"RGD-BKP-MKA","segment":"RGD-BKP","@id":"way/857089234","name":"Natesar - Bakhtiyarpur","usage":"main"},"geometry":{"type":"LineString","coordinates":[[85.5429831,25.4353247],[85.543358,25.4312543]]}},{"type":"Feature","properties":{"corridor":"RGD-BKP-MKA","segment":"RGD-BKP","@id":"way/857089235","name":"Natesar - Bakhtiyarpur","usage":"main"},"geometry":{"type":"LineString","coordinates":[[85.5437041,25.4273503],[85.5439057,25.4253967],[85.5439767,25.4246636]]}},{"type":"Feature","properties":{"corridor":"RGD-BKP-MKA","segment":"RGD-BKP","@id":"way/900744354","name":"Natesar - Bakhtiyarpur","usage":"main"},"geometry":{"type":"LineString","coordinates":[[85.543358,25.4312543],[85.5436172,25.4285876]]}},{"type":"Feature","properties":{"corridor":"RGD-BKP-MKA","segment":"RGD-BKP","@id":"way/857089233","name":"Natesar - Bakhtiyarpur","usage":"main"},"geometry":{"type":"LineString","coordinates":[[85.5439767,25.4246636],[85.5441914,25.4224466]]}},{"type":"Feature","properties":{"corridor":"RGD-BKP-MKA","segment":"RGD-BKP","@id":"way/914813665","name":"Natesar - Bakhtiyarpur","usage":"main"},"geometry":{"type":"LineString","coordinates":[[85.5436172,25.4285876],[85.5437041,25.4273503]]}},{"type":"Feature","properties":{"corridor":"RGD-BKP-MKA","segment":"RGD-BKP","@id":"way/857089236","name":"Natesar - Bakhtiyarpur","usage":"main"},"geometry":{"type":"LineString","coordinates":[[85.5429301,25.4358632],[85.5429831,25.4353247]]}},{"type":"Feature","properties":{"corridor":"RGD-BKP-MKA","segment":"RGD-BKP","@id":"way/900744350","usage":"main"},"geometry":{"type":"LineString","coordinates":[[85.542815,25.4371115],[85.5428428,25.4374327]]}},{"type":"Feature","properties":{"corridor":"RGD-BKP-MKA","segment":"RGD-BKP","@id":"way/96840633","name":"Natesar - Bakhtiyarpur","usage":"main"},"geometry":{"type":"LineString","coordinates":[[85.4052834,25.0238933],[85.405106,25.0237643]]}},{"type":"Feature","properties":{"corridor":"RGD-BKP-MKA","segment":"RGD-BKP","@id":"way/695027614","name":"Natesar - Bakhtiyarpur","usage":"main"},"geometry":{"type":"LineString","coordinates":[[85.4137112,25.030452],[85.4136059,25.0303322]]}},{"type":"Feature","properties":{"corridor":"RGD-BKP-MKA","segment":"RGD-BKP","@id":"way/900818795","usage":"main"},"geometry":{"type":"LineString","coordinates":[[85.5549056,25.4539684],[85.5550608,25.4540096]]}},{"type":"Feature","properties":{"corridor":"RGD-BKP-MKA","segment":"RGD-BKP","@id":"way/713403203","name":"Natesar - Bakhtiyarpur","usage":"main"},"geometry":{"type":"LineString","coordinates":[[85.4411211,25.0904649],[85.4410699,25.0903722]]}},{"type":"Feature","properties":{"corridor":"RGD-BKP-MKA","segment":"BKP-MKA","@id":"way/662134377","name":"Howrah - Delhi Railway","usage":"main"},"geometry":{"type":"LineString","coordinates":[[85.7608981,25.4826662],[85.7490068,25.4828523],[85.745534,25.4827073],[85.7445594,25.4826199],[85.7440098,25.4825459],[85.7434618,25.4824634],[85.7429155,25.4823723],[85.742371,25.4822726],[85.7418285,25.4821644],[85.7412882,25.4820477],[85.7407501,25.4819226],[85.7402146,25.4817891],[85.7396817,25.4816472],[85.7391517,25.4814969],[85.7386121,25.4813345],[85.7380758,25.4811635],[85.737543,25.4809839],[85.7370138,25.4807958],[85.7364883,25.4805993],[85.7359669,25.4803943],[85.7354495,25.480181],[85.7349364,25.4799594],[85.7344278,25.4797297],[85.7339237,25.4794918],[85.7334245,25.4792459],[85.7329301,25.4789919],[85.7324409,25.4787301],[85.7319568,25.4784605],[85.7314782,25.4781832],[85.731005,25.4778982],[85.7305376,25.4776057],[85.730076,25.4773058],[85.7294034,25.4768425],[85.7272273,25.4752196],[85.7270789,25.475102],[85.7270315,25.4750684],[85.7254371,25.4738572],[85.7175816,25.468012],[85.7127085,25.464408],[85.7124718,25.4642284],[85.711557,25.4635432],[85.7072553,25.4603215],[85.7070653,25.4601868],[85.7070458,25.460173],[85.7044781,25.4584433],[85.7040486,25.4581392],[85.7036129,25.4578423],[85.7031711,25.4575529],[85.7027234,25.4572711],[85.7022699,25.4569968],[85.7018108,25.4567303],[85.7013462,25.4564716],[85.7008763,25.4562209],[85.7004013,25.4559781],[85.6999213,25.4557434],[85.6994449,25.4555207],[85.698964,25.455306],[85.6984788,25.4550993],[85.6979895,25.4549007],[85.6974961,25.4547104],[85.696999,25.4545282],[85.6964983,25.4543544],[85.695994,25.4541889],[85.6954865,25.4540319],[85.6949759,25.4538833],[85.6933776,25.453463],[85.6928302,25.4533399],[85.6923398,25.4532317],[85.6918475,25.4531306],[85.6913535,25.4530366],[85.6908578,25.4529497],[85.6903608,25.45287],[85.6898623,25.4527974],[85.6893643,25.4527322],[85.6888651,25.4526742],[85.688365,25.4526234],[85.6878641,25.4525797],[85.6873624,25.4525433],[85.6868602,25.452514],[85.6863575,25.452492],[85.6850589,25.4524785],[85.6805518,25.4525229],[85.6803012,25.4525279],[85.6756124,25.4526082],[85.67014,25.4527105],[85.6626298,25.4528248],[85.6560203,25.4529254],[85.6557749,25.4529269],[85.6553205,25.4529297],[85.6483689,25.453035],[85.6411348,25.4531388],[85.6407483,25.4531438],[85.6307033,25.4533092],[85.6305065,25.4533124],[85.6303282,25.4533138],[85.6289866,25.4533222],[85.6274094,25.453343],[85.6261694,25.4533472],[85.6234842,25.4534079],[85.617937,25.4534823],[85.6113079,25.4535825],[85.6113007,25.4535826],[85.6050526,25.453659],[85.6046896,25.4536655],[85.6046747,25.4536657],[85.6032695,25.4536834],[85.6021577,25.4536973],[85.6003496,25.45372],[85.6002864,25.4537225],[85.5998378,25.4537347],[85.597929,25.4537602],[85.5962593,25.4537825],[85.5946621,25.4538039],[85.5929039,25.4538274],[85.5919504,25.4538401],[85.5906247,25.4538576],[85.5905738,25.4538585],[85.5889799,25.4538798],[85.5875167,25.4538994],[85.5872928,25.4539024],[85.5857411,25.4539231],[85.5835203,25.4539528],[85.5833204,25.4539555],[85.5814644,25.4539803],[85.5802599,25.4539964],[85.5792822,25.4540094],[85.5771285,25.4540382],[85.5748542,25.4540686],[85.5740501,25.4540787],[85.5733118,25.4540879],[85.571095,25.4541157],[85.5691927,25.4541395],[85.5682572,25.4541512],[85.5661249,25.4541779],[85.5644631,25.4541987],[85.5630733,25.4542161],[85.5624058,25.4542249],[85.5615798,25.4542359],[85.5587139,25.4542739],[85.5586884,25.4542733],[85.5579699,25.4542854],[85.5573612,25.4542917],[85.5567111,25.4542995],[85.5544117,25.4543271],[85.5530302,25.4543436],[85.5498093,25.4543821],[85.5497807,25.4543827],[85.5473582,25.4544083],[85.5473077,25.4544089],[85.5468487,25.4544088],[85.5451219,25.4544437],[85.5439648,25.4544651],[85.543233,25.4544786],[85.5420563,25.4545054],[85.5417851,25.4545149],[85.5406371,25.4545924],[85.5396071,25.4546796],[85.5386348,25.4547606],[85.5380078,25.4548345],[85.5358683,25.4551339],[85.535223,25.4552426],[85.534485,25.4553804],[85.5341012,25.4554569],[85.5331726,25.4556489],[85.5329382,25.4556973],[85.5308129,25.4561227]]}},{"type":"Feature","properties":{"corridor":"RGD-BKP-MKA","segment":"BKP-MKA","@id":"way/517876901","name":"Howrah - Delhi Railway","usage":"main"},"geometry":{"type":"LineString","coordinates":[[85.9384972,25.3834596],[85.9205203,25.3897537],[85.9179112,25.3906656],[85.9174553,25.3908255],[85.9091619,25.3937259],[85.9088078,25.3938544],[85.9083187,25.3940234],[85.907912,25.3941645],[85.8904722,25.4003043],[85.8894315,25.4006775],[85.8881709,25.4011693],[85.8872294,25.4015715],[85.8855423,25.4023662],[85.8838901,25.4032191],[85.882726,25.4038708],[85.8817389,25.4044596],[85.8808082,25.4050314],[85.8803174,25.4053463],[85.8789843,25.4062525],[85.8778792,25.4070423],[85.877139,25.4076044],[85.8735345,25.4107415],[85.871381,25.412898],[85.8683659,25.4165641],[85.8678548,25.4172722],[85.8587362,25.4299097]]}},{"type":"Feature","properties":{"corridor":"RGD-BKP-MKA","segment":"BKP-MKA","@id":"way/695615982","name":"Howrah - Delhi Railway","usage":"main"},"geometry":{"type":"LineString","coordinates":[[85.8587757,25.4299325],[85.8678876,25.4173273],[85.8684344,25.4165823],[85.8714155,25.4129141],[85.8735511,25.4107672],[85.8771711,25.4076359],[85.8779195,25.4070738],[85.8790165,25.406289],[85.8803496,25.4053827],[85.8808404,25.4050677],[85.8817577,25.4044935],[85.8827421,25.4039096],[85.8839196,25.4032482],[85.8855611,25.402405],[85.8872423,25.401607],[85.888187,25.4012057],[85.8894488,25.4007101],[85.8904903,25.4003356],[85.9075704,25.3944475]]}},{"type":"Feature","properties":{"corridor":"RGD-BKP-MKA","segment":"BKP-MKA","@id":"way/1006931521","name":"Howrah - Delhi Railway","usage":"main"},"geometry":{"type":"LineString","coordinates":[[85.9075704,25.3944475],[85.9083686,25.3941501],[85.908481,25.3941093],[85.909024,25.3939209],[85.9141924,25.3921141],[85.9180444,25.3907629],[85.9206787,25.389839],[85.9385342,25.3835301]]}},{"type":"Feature","properties":{"corridor":"RGD-BKP-MKA","segment":"BKP-MKA","@id":"way/900744347","usage":"main"},"geometry":{"type":"LineString","coordinates":[[85.5430099,25.4360947],[85.5429752,25.436823],[85.5429068,25.4375181],[85.5428478,25.4381479],[85.5427914,25.4387304],[85.5427697,25.4390564],[85.5427593,25.4392123],[85.5427579,25.4397973],[85.5427861,25.4401812],[85.5428236,25.440454],[85.5428558,25.4406838],[85.5429698,25.4412021],[85.5431683,25.4419227],[85.543407,25.4428055],[85.5436189,25.443583],[85.5438737,25.4445288],[85.5440776,25.4452881],[85.5442237,25.4456987],[85.5444102,25.4461007],[85.5446475,25.4464931],[85.5449332,25.4468721],[85.5452108,25.4471821],[85.5456292,25.4475793],[85.5464808,25.4482078],[85.5474732,25.4489223],[85.5482819,25.4495423],[85.5491067,25.4501284],[85.5499489,25.4507206],[85.550712,25.4512571],[85.5515784,25.4518662],[85.5524943,25.4525419],[85.5533768,25.4531788],[85.5537094,25.453415],[85.5539628,25.4535639],[85.5541586,25.4536584],[85.5546562,25.45388],[85.5549056,25.4539684]]}},{"type":"Feature","properties":{"corridor":"RGD-BKP-MKA","segment":"BKP-MKA","@id":"way/66661881","name":"Natesar - Bakhtiyarpur","usage":"main"},"geometry":{"type":"LineString","coordinates":[[85.5408168,25.4545137],[85.540969,25.454502],[85.5414163,25.4544677],[85.5416961,25.454419],[85.5419604,25.4543589],[85.5422062,25.454303],[85.5428451,25.45407],[85.5429894,25.4539893],[85.5433202,25.4538044],[85.5436595,25.4535484],[85.5437442,25.4534844],[85.5440702,25.4531817],[85.5441667,25.4530921],[85.5442536,25.4529842],[85.5444792,25.452704],[85.5447782,25.4522444],[85.5449271,25.4519297],[85.545047,25.4515958],[85.5451109,25.4512782],[85.5451644,25.4510128],[85.5451742,25.4507263],[85.5451819,25.4504846],[85.5451805,25.4503482],[85.5451688,25.4502477],[85.5451636,25.4501363],[85.54506,25.4496119],[85.5449258,25.4490513],[85.5447087,25.4481913],[85.5428073,25.4413351],[85.5426914,25.4404773],[85.5426314,25.4401022],[85.5426329,25.4387589],[85.542815,25.4371115],[85.5428764,25.4365529],[85.5429301,25.4358632]]}},{"type":"Feature","properties":{"corridor":"RGD-BKP-MKA","segment":"BKP-MKA","@id":"way/900818796","usage":"main"},"geometry":{"type":"LineString","coordinates":[[85.5550608,25.4540096],[85.5553061,25.4540793],[85.555644,25.4541495],[85.5558774,25.4541871],[85.556218,25.4542222],[85.5564272,25.4542319],[85.5567282,25.4542315],[85.5572868,25.4542307],[85.5579961,25.4542213],[85.5585247,25.4542149],[85.5587098,25.4542125],[85.5594595,25.4542028],[85.5608247,25.4541859],[85.5614337,25.4541791],[85.5616148,25.4541771],[85.5622463,25.4541701],[85.5624609,25.4541673],[85.5630309,25.4541598],[85.5638127,25.4541495],[85.5643908,25.4541399],[85.5651297,25.4541277],[85.5661141,25.4541185],[85.5662951,25.4541168],[85.5673653,25.4540999],[85.5683028,25.45409],[85.5685092,25.4540878],[85.5691907,25.454077],[85.5695862,25.4540708],[85.570537,25.4540624],[85.5710741,25.4540544],[85.571681,25.4540454],[85.5727471,25.4540333],[85.5736926,25.4540212],[85.5743538,25.4540091]]}},{"type":"Feature","properties":{"corridor":"RGD-BKP-MKA","segment":"BKP-MKA","@id":"way/754337801","name":"Natesar - Bakhtiyarpur","usage":"main"},"geometry":{"type":"LineString","coordinates":[[85.5335862,25.4555078],[85.534077,25.4554109],[85.5352204,25.4551966],[85.5359059,25.4550806],[85.5379233,25.4547885],[85.5386287,25.4547134],[85.5396205,25.454619],[85.5408168,25.4545137]]}},{"type":"Feature","properties":{"corridor":"RGD-BKP-MKA","segment":"BKP-MKA","@id":"way/900744349","usage":"main"},"geometry":{"type":"LineString","coordinates":[[85.5429771,25.4361291],[85.5429076,25.4367724],[85.5428428,25.4374327],[85.5428244,25.4376202],[85.5427694,25.4382863],[85.5427464,25.4385829],[85.5427198,25.4389257],[85.5427118,25.4396136],[85.5427131,25.4399043],[85.5427533,25.4404235]]}},{"type":"Feature","properties":{"corridor":"RGD-BKP-MKA","segment":"BKP-MKA","@id":"way/857089234","name":"Natesar - Bakhtiyarpur","usage":"main"},"geometry":{"type":"LineString","coordinates":[[85.5429831,25.4353247],[85.543358,25.4312543]]}},{"type":"Feature","properties":{"corridor":"RGD-BKP-MKA","segment":"BKP-MKA","@id":"way/900744354","name":"Natesar - Bakhtiyarpur","usage":"main"},"geometry":{"type":"LineString","coordinates":[[85.543358,25.4312543],[85.5436172,25.4285876]]}},{"type":"Feature","properties":{"corridor":"RGD-BKP-MKA","segment":"BKP-MKA","@id":"way/900748038","usage":"main"},"geometry":{"type":"LineString","coordinates":[[85.5757548,25.4540989],[85.576306,25.4541163],[85.5766668,25.4541414]]}},{"type":"Feature","properties":{"corridor":"RGD-BKP-MKA","segment":"BKP-MKA","@id":"way/900748035","usage":"main"},"geometry":{"type":"LineString","coordinates":[[85.5740501,25.4540787],[85.574769,25.454112]]}},{"type":"Feature","properties":{"corridor":"RGD-BKP-MKA","segment":"BKP-MKA","@id":"way/900748037","usage":"main"},"geometry":{"type":"LineString","coordinates":[[85.6289866,25.4533222],[85.6297011,25.4533818]]}},{"type":"Feature","properties":{"corridor":"RGD-BKP-MKA","segment":"BKP-MKA","@id":"way/857089236","name":"Natesar - Bakhtiyarpur","usage":"main"},"geometry":{"type":"LineString","coordinates":[[85.5429301,25.4358632],[85.5429831,25.4353247]]}},{"type":"Feature","properties":{"corridor":"RGD-BKP-MKA","segment":"BKP-MKA","@id":"way/900744346","usage":"main"},"geometry":{"type":"LineString","coordinates":[[85.5727471,25.4540333],[85.5733118,25.4540879]]}},{"type":"Feature","properties":{"corridor":"RGD-BKP-MKA","segment":"BKP-MKA","@id":"way/900744350","usage":"main"},"geometry":{"type":"LineString","coordinates":[[85.542815,25.4371115],[85.5428428,25.4374327]]}},{"type":"Feature","properties":{"corridor":"RGD-BKP-MKA","segment":"BKP-MKA","@id":"way/900818795","usage":"main"},"geometry":{"type":"LineString","coordinates":[[85.5549056,25.4539684],[85.5550608,25.4540096]]}}]}