{"type": "FeatureCollection", "features": [{"type": "Feature", "properties": {"corridor": "DHWN-IPR", "segment": "Fatuha-Natesar", "source": "ecr-alignment-2026-08", "usage": "main"}, "geometry": {"type": "LineString", "coordinates": [[85.28793, 25.4237233], [85.2878218, 25.4232935], [85.2875854, 25.4226417], [85.2875131, 25.4224232], [85.2873494, 25.4218108], [85.2872987, 25.4216427], [85.2871416, 25.4212283], [85.2862325, 25.418759], [85.2861592, 25.4185916], [85.2859854, 25.4181903], [85.2858889, 25.4179832], [85.2857816, 25.4177264], [85.2856422, 25.4173231], [85.2854678, 25.41687], [85.2855389, 25.4173581], [85.2853672, 25.4169076], [85.2849501, 25.4157859], [85.2848429, 25.4154309], [85.2848189, 25.415334], [85.2847697, 25.4150295], [85.2847134, 25.4146254], [85.2847006, 25.4140839], [85.2847141, 25.4137872], [85.2847424, 25.4135622], [85.2847759, 25.413379], [85.2848256, 25.4131483], [85.2850968, 25.4120066], [85.2851466, 25.4116716], [85.2851638, 25.4114767], [85.285172, 25.4111925], [85.2851433, 25.4108097], [85.285122, 25.4105291], [85.2850789, 25.4102622], [85.2849374, 25.4097939], [85.2848347, 25.4095122], [85.2840867, 25.4073738], [85.2827487, 25.4036238], [85.2819609, 25.4014295], [85.2818618, 25.4011353], [85.2817194, 25.4007048], [85.2816335, 25.400309], [85.2815322, 25.399598], [85.2814985, 25.3992657], [85.2814235, 25.3985264], [85.2811235, 25.3956413], [85.281021, 25.3945023], [85.2810362, 25.3937853], [85.2811697, 25.3926811], [85.2812557, 25.3919694], [85.2813393, 25.3914033], [85.2813818, 25.3911093], [85.2815185, 25.3905776], [85.2817121, 25.3900355], [85.2823463, 25.3887455], [85.282821, 25.3878672], [85.2830565, 25.3870884], [85.2833185, 25.3858362], [85.2834438, 25.3851431], [85.2835274, 25.3834482], [85.2835426, 25.3825974], [85.2836793, 25.3814926], [85.2838578, 25.380453], [85.2843762, 25.3789139], [85.2845338, 25.3784458], [85.2847502, 25.3778351], [85.2848527, 25.3771934], [85.2849097, 25.3760749], [85.2848452, 25.3742495], [85.2847042, 25.3695685], [85.2846966, 25.3693943], [85.2846594, 25.3689681], [85.284556, 25.3683254], [85.284135, 25.3666388], [85.2836007, 25.3643575], [85.2829881, 25.361742], [85.282278, 25.3587599], [85.2820691, 25.3582109], [85.2817474, 25.3576999], [85.2806906, 25.3560214], [85.2802159, 25.3551738], [85.2794032, 25.3532966], [85.2792412, 25.3530118], [85.2787804, 25.3522019], [85.2786019, 25.3517386], [85.2783893, 25.3499883], [85.27815, 25.3477507], [85.278076, 25.3449691], [85.2780608, 25.3437163], [85.2781291, 25.3405828], [85.2781899, 25.3372673], [85.2781633, 25.335836], [85.2777897, 25.3325133], [85.2777742, 25.3323755], [85.277518, 25.3305618], [85.2774869, 25.3301249], [85.2774655, 25.3294854], [85.2775108, 25.3290794], [85.27778, 25.3275569], [85.2779873, 25.3262679], [85.2781911, 25.3247815], [85.2783828, 25.3239653], [85.2785185, 25.3233872], [85.2786058, 25.3230617], [85.2787077, 25.322404], [85.2787004, 25.3218811], [85.2786734, 25.3217237], [85.2784094, 25.3201843], [85.2782857, 25.3196252], [85.2780674, 25.3190596], [85.2770406, 25.3173575], [85.2763281, 25.3161764], [85.2743693, 25.312929], [85.2737527, 25.3119068], [85.2730126, 25.3106781], [85.2725522, 25.3099138], [85.2709042, 25.3071545], [85.2687068, 25.3034808], [85.2684038, 25.3029585], [85.2661784, 25.2992412], [85.265279, 25.2977603], [85.2646104, 25.2966593], [85.2615545, 25.2915018], [85.2600169, 25.2889581], [85.2599837, 25.2889032], [85.2598373, 25.2886442], [85.259801, 25.2885836], [85.2594117, 25.2879329], [85.2582101, 25.2859049], [85.2573926, 25.284525], [85.2545659, 25.2798144], [85.2530088, 25.2771893], [85.2512844, 25.2742746], [85.2493235, 25.2710078], [85.2473335, 25.2677146], [85.2458567, 25.2652043], [85.2449761, 25.2637074], [85.2431506, 25.26066], [85.2409925, 25.2570449], [85.2391352, 25.2539515], [85.2388752, 25.2535079], [85.238635, 25.2530308], [85.238519, 25.2526505], [85.2384422, 25.252399], [85.2384116, 25.2522437], [85.2383009, 25.2516819], [85.238002, 25.2501649], [85.2370707, 25.2454726], [85.2360739, 25.2405631], [85.2351717, 25.2359297], [85.2347442, 25.2337635], [85.2341748, 25.2308782], [85.2331265, 25.2256695], [85.2331146, 25.2256106], [85.232774, 25.2238934], [85.2325976, 25.2230042], [85.2319951, 25.2198767], [85.2312311, 25.2160753], [85.2311813, 25.2158231], [85.2302307, 25.2110098], [85.229339, 25.2066088], [85.2291356, 25.2056051], [85.228077, 25.2002561], [85.2271747, 25.1957858], [85.2262652, 25.1911113], [85.2262649, 25.1911097], [85.2253666, 25.1866308], [85.2244462, 25.1819592], [85.2234058, 25.1767145], [85.2224308, 25.1717857], [85.2215652, 25.1675429], [85.2212609, 25.1658799], [85.2203685, 25.1613532], [85.2195149, 25.1570933], [85.2192638, 25.1556418], [85.2192123, 25.1553438], [85.2188398, 25.1536305], [85.2180838, 25.1496848], [85.2179835, 25.1492147], [85.2178953, 25.1487587], [85.2177836, 25.1482237], [85.2177683, 25.1481201], [85.2177273, 25.147834], [85.2177179, 25.1475172], [85.2177237, 25.1469672], [85.2178048, 25.1461874], [85.2179162, 25.1449202], [85.2177092, 25.142683], [85.2176585, 25.142209], [85.2171487, 25.1374471], [85.2170833, 25.1366535], [85.2169665, 25.1351311], [85.2169071, 25.1344548], [85.216854, 25.1338495], [85.216831, 25.1335881], [85.2167432, 25.1325887], [85.2165448, 25.1300423], [85.2165668, 25.1289727], [85.2171382, 25.1213712], [85.2173968, 25.1196225]]}}]}